{
"type": "FeatureCollection",
"name": "ophiolite_provinces",
"crs": { "type": "name", "properties": { "name": "urn:ogc:def:crs:OGC:1.3:CRS84" } },
"features": [
{ "type": "Feature", "properties": { "name": "Semail Ophilite", "prov_ref": null }, "geometry": { "type": "Polygon", "coordinates": [ [ [ 57.961816847602272, 17.952029716557849 ], [ 58.178639829362936, 17.70423202311709 ], [ 57.789430564124565, 17.422843006850322 ], [ 57.508333316666722, 17.366666666666674 ], [ 57.507521076294218, 17.218961540128937 ], [ 57.342322614000381, 17.322210579062588 ], [ 56.93965136215914, 17.260261155702398 ], [ 56.64022914925156, 17.332535482955951 ], [ 55.452865201514591, 17.404809810209507 ], [ 55.411565585941133, 17.095062693408558 ], [ 55.2, 16.741666683333321 ], [ 54.875681494627756, 16.476170548608764 ], [ 54.779304588122415, 16.506288331891682 ], [ 54.733333333333348, 16.608333349999981 ], [ 54.65, 16.641666683333298 ], [ 54.5, 16.641666683333298 ], [ 54.094320021369882, 16.537472915225081 ], [ 54.083333333333343, 16.42500001666663 ], [ 53.866666666666674, 16.341666683333301 ], [ 53.75, 16.341666683333301 ], [ 53.78622694820001, 17.379171616977985 ], [ 54.184709939247242, 17.948433032759752 ], [ 55.32323277081079, 19.03002972274512 ], [ 55.664789620279848, 19.713143421683245 ], [ 56.31944024842889, 20.396257120621371 ], [ 57.002553947367012, 20.766277040879523 ], [ 57.62874150472696, 21.33553845666129 ], [ 58.027224495774206, 21.961726014021238 ], [ 58.115485669655939, 22.610888604244238 ], [ 57.808902426915694, 22.772518159378158 ], [ 57.524217987228326, 22.732128652448534 ], [ 57.130039532276577, 22.954122835691173 ], [ 56.714927844601064, 23.282340735589429 ], [ 56.582569455954726, 23.517551518815896 ], [ 56.190735649191375, 23.748004893686193 ], [ 55.85990895520986, 24.696864559027262 ], [ 55.838010152156983, 25.034631531846959 ], [ 55.903706561315616, 25.43081640868558 ], [ 55.881807758262745, 25.805989671079637 ], [ 55.991301773527105, 26.062005628473074 ], [ 56.232188607108732, 26.33709068432729 ], [ 56.363581425425977, 26.376335415415731 ], [ 56.451176637637474, 26.179978785077765 ], [ 56.473075440690351, 25.884823037989758 ], [ 56.407379031531725, 25.667905058622793 ], [ 56.473075440690351, 25.351682833848589 ], [ 56.494974243743222, 25.034631531846959 ], [ 56.779658683430597, 24.35817938856232 ], [ 57.150739409759574, 23.882962591349028 ], [ 57.896497639127183, 23.69814582751582 ], [ 58.312574897131803, 23.718196486654715 ], [ 58.772449761242171, 23.497470145857193 ], [ 58.969538988718043, 23.316600311326258 ], [ 59.276122231458288, 22.873439614470708 ], [ 59.626503080304268, 22.651313858298117 ], [ 59.82492805809823, 22.391927078063389 ], [ 59.874999983333396, 22.26666666666668 ], [ 60.058844595874618, 21.994498048316533 ], [ 60.104315429301778, 21.714094575515695 ], [ 59.94516751230671, 21.562525130758484 ], [ 59.823911956500943, 21.145709157676158 ], [ 59.558665428175829, 20.766785545783133 ], [ 59.157006399569219, 20.349969572700804 ], [ 58.846289037816938, 19.864947349477735 ], [ 58.911708005791851, 19.676288666749794 ], [ 58.71745500977331, 19.569386932201176 ], [ 58.58131108120417, 19.191018183761642 ], [ 58.024999983333373, 18.51666666666668 ], [ 57.961816847602272, 17.952029716557849 ] ] ] } },
{ "type": "Feature", "properties": { "name": "Katha-Gangaw Range", "prov_ref": "doi:10.1016/j.jseaes.2012.04.019" }, "geometry": { "type": "Polygon", "coordinates": [ [ [ 95.9093, 23.015 ], [ 95.995383278423475, 23.454654203816109 ], [ 96.170677948207697, 23.770184609427716 ], [ 96.404404174586659, 24.307754930099339 ], [ 96.965347117896187, 25.289405080891004 ], [ 97.456172193292019, 25.862034335519475 ], [ 97.643153174395195, 26.235996297725819 ], [ 97.876879400774158, 26.52815408069953 ], [ 98.344331853532097, 26.82031186367324 ], [ 98.561111104483942, 26.797431863804615 ], [ 98.603076471442549, 26.20991672638365 ], [ 98.589088015789685, 25.692343867227095 ], [ 98.491168826219521, 25.230724830682078 ], [ 97.887294336396636, 24.215072779536548 ], [ 97.176247202616352, 23.50301340495913 ], [ 96.330717668389724, 22.927333722081418 ], [ 95.9093, 23.015 ] ] ] } },
{ "type": "Feature", "properties": { "name": "Debin Terrane", "prov_ref": "doi:doi:10.1016/j.earscirev.2016.01.007" }, "geometry": { "type": "Polygon", "coordinates": [ [ [ 152.591566582754524, 64.016266142153924 ], [ 152.293213215871305, 63.905887358420841 ], [ 151.373586986447606, 63.952792163714385 ], [ 150.488320053599466, 64.077325811867283 ], [ 150.232427433271937, 64.367235171698397 ], [ 150.094940514947353, 64.601678458358236 ], [ 150.071038599586473, 64.918547682299376 ], [ 147.973895460193376, 65.129494650532791 ], [ 147.044582936778994, 65.45563600699505 ], [ 146.405775455569653, 65.757110633592362 ], [ 142.76524747001551, 65.755598046060086 ], [ 142.208750845140742, 66.176966769063668 ], [ 142.035697284217719, 66.495402766027382 ], [ 141.63060027902435, 66.906622334300835 ], [ 141.179479162300055, 67.291182691362721 ], [ 139.931630251531885, 67.511085692754193 ], [ 138.909757544855438, 67.514020494647355 ], [ 138.745270869418761, 67.663805912046314 ], [ 139.70816457469175, 67.910172531264692 ], [ 140.837320486594109, 68.111610621804232 ], [ 141.226599048336453, 68.212094640589001 ], [ 140.75480987554306, 68.651390411045412 ], [ 141.151060460577014, 68.801298466028086 ], [ 142.74033578106912, 68.77709624349302 ], [ 143.052827300053593, 68.927104219271214 ], [ 144.373286183187815, 68.955804494035647 ], [ 143.56218519183841, 68.646814454173267 ], [ 142.337576663939444, 68.420854530233129 ], [ 141.392041971711507, 68.189846683789298 ], [ 141.040522180656865, 68.069851941943085 ], [ 141.268354065439297, 67.744476321864667 ], [ 141.329883911482398, 67.541835541817576 ], [ 141.585988331688952, 67.299206233335681 ], [ 144.099698470309875, 66.292531589267426 ], [ 144.792603183051682, 66.066687726424178 ], [ 146.036647669772549, 65.850953282308197 ], [ 146.428505895632981, 65.81496555489224 ], [ 146.801304785900186, 65.840911840282217 ], [ 146.963483165432621, 65.544575533972051 ], [ 149.641794471614361, 65.396834909788353 ], [ 149.883934119473224, 65.336235926993581 ], [ 149.762695273006443, 65.109039803801636 ], [ 150.821853029909875, 65.077239231097167 ], [ 151.484706261653713, 64.793671763438013 ], [ 151.476428917453632, 64.338707534753908 ], [ 151.800887275315631, 64.196997025628391 ], [ 152.126064145070046, 64.248270597092713 ], [ 152.644916770549088, 64.230178462122041 ], [ 152.591566582754524, 64.016266142153924 ] ] ] } },
{ "type": "Feature", "properties": { "name": "Sulawesi Ophiolite complex", "prov_ref": null }, "geometry": { "type": "Polygon", "coordinates": [ [ [ 123.264442400857135, -4.421986245307005 ], [ 123.393307458977006, -4.879385555290969 ], [ 123.637080134890738, -5.300236524478447 ], [ 123.606972233198519, -5.551307792427604 ], [ 123.149305978862756, -5.566657054776647 ], [ 122.6644052963034, -5.838078654309113 ], [ 121.865094739497678, -5.544852168328748 ], [ 121.529937189737282, -5.010795074527585 ], [ 121.259480448816845, -4.726352065806479 ], [ 120.795244601831214, -3.646041186692271 ], [ 120.81243852208992, -3.110124854361238 ], [ 120.677151916923876, -2.648019568193414 ], [ 120.599991373443657, -1.960909377420795 ], [ 120.624153441565042, -1.294129464280311 ], [ 120.388375446614816, -0.645278352201906 ], [ 120.356397945966009, -0.293525845064984 ], [ 120.500296698885649, -0.021717089550091 ], [ 121.2357792138083, 0.106192913045152 ], [ 122.43493548813872, 0.170147914342774 ], [ 123.484733962625555, 0.009703249663395 ], [ 123.669565544402928, -0.373651142171165 ], [ 123.943390109999044, -0.633784479487474 ], [ 124.333590115973507, -0.832307289544657 ], [ 124.444535806499445, -1.197878486442848 ], [ 125.025665604584276, -1.457412182674912 ], [ 125.875376159651879, -1.620387096139598 ], [ 127.239296779917851, -1.776195220685798 ], [ 127.439316268962202, -1.841899467192504 ], [ 127.591842390492602, -1.952408357875151 ], [ 125.978145898907655, -2.009716494483664 ], [ 123.986742193576703, -2.235814731770147 ], [ 122.676229359048165, -2.62667569402723 ], [ 122.032128545373595, -2.701397219790321 ], [ 123.424, -2.84609 ], [ 123.672, -3.09361 ], [ 123.770568834561786, -3.617303741238814 ], [ 123.706, -3.94122 ], [ 123.264442400857135, -4.421986245307005 ] ] ] } },
{ "type": "Feature", "properties": { "name": "Erdaojing subduction complex", "prov_ref": "10.1146/annurev-earth-060614-105254" }, "geometry": { "type": "Polygon", "coordinates": [ [ [ 100.915843071367632, 41.527142783266662 ], [ 102.473947032392246, 41.446120663415279 ], [ 103.398325160088206, 41.484636418735953 ], [ 103.918287856917217, 41.330573397453286 ], [ 104.996729005895887, 41.484636418735953 ], [ 105.921107133591903, 41.831278216621939 ], [ 106.92251677192921, 42.331983035790621 ], [ 108.135763064530252, 42.620851200695625 ], [ 109.271977846489904, 42.832687854959275 ], [ 110.697060793354566, 42.986750876241949 ], [ 113.258358522178938, 43.506713573070968 ], [ 114.587152080741902, 43.69929234967428 ], [ 115.915945639304908, 43.757065982655291 ], [ 117.321770708509277, 43.988160514579285 ], [ 118.095713222170247, 44.151812302094214 ], [ 118.835623091766337, 44.418665041948515 ], [ 119.454236261428576, 44.588480421855813 ], [ 120.618684580792916, 44.624869431835933 ], [ 121.091741710534578, 44.418665041948515 ], [ 121.601187850256522, 44.636999101829311 ], [ 121.866416591769408, 44.672747352465322 ], [ 123.965791430566085, 44.003945558988448 ], [ 123.611975757602991, 43.998422644350583 ], [ 123.035594087553122, 43.933470290142928 ], [ 122.080785603715285, 43.733068885448894 ], [ 121.264481678733603, 43.620013728570257 ], [ 119.374439122339226, 43.850169458440469 ], [ 117.635348526932347, 43.650465275235852 ], [ 116.894778847548537, 43.533971168366499 ], [ 115.238439343050572, 43.183733029403811 ], [ 113.376641499093651, 42.876919901560726 ], [ 110.378240476990811, 42.584052824983232 ], [ 108.995099188660546, 42.294400410017019 ], [ 108.002179705222289, 42.158770242586165 ], [ 107.138250142882526, 41.842286706861152 ], [ 106.238772774257271, 41.319103443782325 ], [ 105.401924184626012, 40.726029777829524 ], [ 104.812443911140733, 40.539351000346883 ], [ 104.074453803881141, 40.367092382559491 ], [ 102.869316991686773, 40.145924952606237 ], [ 101.664180179492462, 40.033084427119881 ], [ 100.8541281692209, 40.110291778347232 ], [ 99.939356480885607, 40.240973448109415 ], [ 99.43918849993986, 40.235267774590099 ], [ 100.491572692945525, 41.268771721663306 ], [ 100.915843071367632, 41.527142783266662 ] ] ] } },
{ "type": "Feature", "properties": { "name": "Sabah Zone", "prov_ref": "10.1007/s12583-019-0858-0" }, "geometry": { "type": "Polygon", "coordinates": [ [ [ 115.661533876430553, 6.332965770493259 ], [ 115.476534766018816, 6.479487491064766 ], [ 116.239027142683184, 7.297771992850963 ], [ 116.666766768616924, 8.023069619434176 ], [ 116.982922144307068, 8.692575120895617 ], [ 117.726817145930838, 9.492262247641214 ], [ 118.321933147229913, 10.366338874549196 ], [ 118.82406227332595, 11.221818126416593 ], [ 119.913195613946257, 12.820510705829829 ], [ 120.519652672036813, 12.871657686632645 ], [ 120.765063070655415, 12.668929613747828 ], [ 121.04589083647727, 12.048989074103352 ], [ 121.178356763751736, 11.874134050101063 ], [ 121.266207239569752, 11.814622437450142 ], [ 121.490976352119461, 11.752265397008561 ], [ 121.649935464848809, 11.630396743916055 ], [ 121.876996727978948, 11.411421524240748 ], [ 121.951957779034586, 11.195908502455826 ], [ 121.798297303396211, 10.697836615903853 ], [ 121.693140494248752, 10.090015491116327 ], [ 121.427698434777383, 9.504481536400075 ], [ 120.705023605530243, 8.944663006701582 ], [ 120.114669519666379, 8.659664482491438 ], [ 119.534493952524301, 8.201631140010852 ], [ 119.168067278539823, 7.723240760086684 ], [ 118.730390973502821, 7.265207417606097 ], [ 118.862711716886096, 6.817352593847303 ], [ 119.035746535156548, 6.674853331742231 ], [ 119.300388021923112, 6.359319251366717 ], [ 119.57500001666665, 6.166666666666671 ], [ 119.374999983333339, 5.566666666666677 ], [ 119.559380287344112, 5.143730543616821 ], [ 119.317043291775988, 4.649527633912604 ], [ 118.68721080875018, 4.150328691843079 ], [ 117.887151887530734, 4.026980714344143 ], [ 117.317159253444075, 4.677340393479757 ], [ 116.876453217836186, 5.082313507281615 ], [ 115.661533876430553, 6.332965770493259 ] ] ] } },
{ "type": "Feature", "properties": { "name": "Lancangjiang Belt", "prov_ref": "doi:10.1016/j.gr.2013.05.020" }, "geometry": { "type": "Polygon", "coordinates": [ [ [ 100.237535199496293, 25.487054615493594 ], [ 100.303879460751304, 25.184308280226229 ], [ 100.425030946626819, 24.842881365486214 ], [ 100.480099803842933, 23.983807192914547 ], [ 100.535168661059089, 23.642380278174532 ], [ 100.821526718582987, 23.102705477456432 ], [ 101.449311690846855, 22.342755247873807 ], [ 101.504380548062969, 21.946259475917657 ], [ 101.449311690846855, 21.637873875507321 ], [ 101.085857233220409, 21.384557132313109 ], [ 101.063829690333918, 21.274419417880846 ], [ 101.129912318993277, 21.087185303346001 ], [ 100.90963689012878, 20.624606902730495 ], [ 100.689361461264227, 20.283179987990469 ], [ 100.458072260956499, 19.677422558613014 ], [ 100.369962089410649, 19.313968100986553 ], [ 100.259824374978436, 19.181802843667832 ], [ 100.006507631784203, 19.060651357792342 ], [ 99.797245974362895, 18.895444786143955 ], [ 99.587984316941601, 18.53199032851747 ], [ 99.477846602509317, 18.267659813880041 ], [ 99.312640030860933, 18.069411927901964 ], [ 99.202502316428664, 17.397571869865153 ], [ 99.045109100992093, 17.041938255699446 ], [ 98.555964558383778, 17.352322573660985 ], [ 98.213609917826801, 17.616869341364058 ], [ 98.345883301678384, 18.239332324194795 ], [ 98.649334005808342, 18.713960348603237 ], [ 98.898319198940641, 19.017411052733234 ], [ 99.030592582792224, 19.748805057559363 ], [ 99.085058093789868, 20.433514338673174 ], [ 99.155085179358366, 20.814772915657002 ], [ 99.225112264926764, 21.102662045216231 ], [ 99.388508797919883, 21.266058578209304 ], [ 99.349604861492963, 21.802932900900824 ], [ 99.388508797919883, 22.036356519462359 ], [ 99.295139350495262, 22.347588010877715 ], [ 99.318481712351428, 22.783312098859248 ], [ 99.497439819915243, 23.06342044113309 ], [ 99.4531097982387, 23.17098704213976 ], [ 98.971675620417912, 23.298714477071794 ], [ 98.932374871208054, 23.475567848516157 ], [ 99.15835417916476, 23.780148654892553 ], [ 99.394158674423878, 24.015953150151706 ], [ 99.541536483960869, 24.546513264484776 ], [ 99.600487607775634, 25.057423004212918 ], [ 99.462934985541153, 25.470080870916433 ], [ 99.405199319109826, 25.766390326917691 ], [ 99.359659227102881, 26.145891093642184 ], [ 99.387525731115673, 26.678624961614421 ], [ 99.757315889839091, 26.21893689061573 ], [ 100.237535199496293, 25.487054615493594 ] ] ] } },
{ "type": "Feature", "properties": { "name": "Ailaoshan Terrane", "prov_ref": "10.1016/j.gr.2013.05.020" }, "geometry": { "type": "Polygon", "coordinates": [ [ [ 100.826839599367673, 25.446084795466732 ], [ 101.221001850029722, 25.257572414715298 ], [ 101.435220464519986, 25.009078821906616 ], [ 101.640870334430616, 24.632054060403771 ], [ 102.309232411640167, 23.895142026557316 ], [ 103.091, 23.111 ], [ 103.604500888738173, 22.898857891459667 ], [ 103.757350245594253, 22.71265527457113 ], [ 103.748781501014662, 22.309924279329458 ], [ 103.671662799798185, 21.915762028667405 ], [ 103.488102095468648, 21.553959788499505 ], [ 103.454273674209603, 21.802034877732225 ], [ 103.251303146655601, 21.835863298991228 ], [ 103.161094023298247, 22.038833826545268 ], [ 102.969399636163857, 22.298185056197653 ], [ 102.71004840651149, 22.54626014543037 ], [ 102.247726649305065, 22.613916987948379 ], [ 101.502193184611087, 23.648761819162662 ], [ 101.038601059317529, 24.718648564019745 ], [ 100.539456106731549, 25.361684784659595 ], [ 100.826839599367673, 25.446084795466732 ] ] ] } },
{ "type": "Feature", "properties": { "name": "Macquarie Ridge", "prov_ref": null }, "geometry": { "type": "MultiPolygon", "coordinates": [ [ [ [ 159.731, -53.1704 ], [ 159.746253740676337, -53.040487306620179 ], [ 159.925390647823832, -52.866024597802806 ], [ 159.98233797465474, -52.72735984784525 ], [ 160.173931001769887, -52.603654113802413 ], [ 160.178456821308032, -52.543309853293707 ], [ 160.348929357245112, -52.36982010433119 ], [ 160.86034696505638, -52.006245934766255 ], [ 161.025000016666638, -51.925313621136397 ], [ 160.960192817505117, -51.911833452194642 ], [ 160.965948120781377, -51.816870948136106 ], [ 160.902639784742348, -51.776583825202188 ], [ 161.259468587871396, -51.523350481046101 ], [ 161.435005337797776, -51.275872440166296 ], [ 161.895429599899728, -50.97371901816188 ], [ 162.0, -50.841666683333258 ], [ 162.224999983333419, -50.848407153623455 ], [ 162.183333333333337, -50.908333316666713 ], [ 162.154418247332075, -51.057170915667861 ], [ 162.05945574327356, -51.114723948430608 ], [ 162.027801575254045, -51.180909936107767 ], [ 161.908333316666642, -51.166666666666671 ], [ 161.757302321269151, -51.425510325349435 ], [ 161.645073907381772, -51.468675099921498 ], [ 161.24166665000007, -51.833333333333329 ], [ 161.172628513188897, -51.980599624050058 ], [ 161.029310894480744, -52.060555769224088 ], [ 160.904096553925172, -52.181244290241494 ], [ 160.79880739804463, -52.305597638220213 ], [ 160.772947870384655, -52.424687568233182 ], [ 160.275108744399319, -52.763117119623892 ], [ 160.1797310816969, -52.864351305474692 ], [ 160.156304989103347, -52.943832691060031 ], [ 159.88802529570637, -53.162858543593458 ], [ 159.802962362688362, -53.221059497763676 ], [ 159.737981907075238, -53.220762571362641 ], [ 159.731, -53.1704 ] ] ], [ [ [ 158.102445994365496, -56.167299969855165 ], [ 158.061180601238618, -56.268830797999506 ], [ 158.025402142060301, -56.210846495071138 ], [ 158.032101607478154, -56.056758790460748 ], [ 158.078997865403068, -55.919419749394969 ], [ 158.068948667276288, -55.818927768127324 ], [ 158.176140113961793, -55.708386588732907 ], [ 158.223036371886678, -55.587796211211732 ], [ 158.273282362520519, -55.329866792624777 ], [ 158.367074878370317, -55.185828286141145 ], [ 158.400572205459525, -54.988194056314775 ], [ 158.502949949718271, -54.782026686935751 ], [ 158.516237226071098, -54.654136652039924 ], [ 158.783363418044672, -54.19992812707028 ], [ 158.807819754551161, -53.861033178337216 ], [ 158.92908678076742, -53.759294492862942 ], [ 158.953568189007655, -53.666265141550149 ], [ 159.027012413728272, -53.602613480125598 ], [ 159.289958959965219, -53.443528576547521 ], [ 159.316162177650767, -53.548341447289701 ], [ 159.274237029353884, -53.695079466328764 ], [ 159.142, -53.8122 ], [ 159.193880495118208, -53.99554302912302 ], [ 159.137980297389049, -54.112584068118458 ], [ 159.150208465642294, -54.226131344755821 ], [ 159.108333316666688, -54.466666666666654 ], [ 158.941666650000059, -54.816666666666649 ], [ 158.891666650000047, -55.066666666666649 ], [ 158.789141199694427, -55.162380157178696 ], [ 158.799190397821178, -55.316467861789086 ], [ 158.705397881971379, -55.393511714094281 ], [ 158.718796812807085, -55.470555566399476 ], [ 158.53333333333336, -55.524999983333359 ], [ 158.466666666666697, -55.57499998333337 ], [ 158.444118730675513, -55.694987657897222 ], [ 158.355590440994405, -55.824329667387822 ], [ 158.363725145661391, -55.969665740028788 ], [ 158.102445994365496, -56.167299969855165 ] ] ] ] } },
{ "type": "Feature", "properties": { "name": "New Caledonia", "prov_ref": null }, "geometry": { "type": "Polygon", "coordinates": [ [ [ 163.491666683333335, -15.566666666666663 ], [ 163.948371877764544, -15.301207614452537 ], [ 164.246395732762778, -15.217760935053027 ], [ 164.59210340456076, -15.217760935053027 ], [ 164.896087736658956, -15.134314255653518 ], [ 165.563661171855045, -15.086630438853799 ], [ 166.094143633751912, -15.009144236554254 ], [ 166.262, -14.8885 ], [ 166.322858129422684, -15.410744252592467 ], [ 166.046459816952193, -15.503863835851345 ], [ 165.849764072653358, -15.474061450351519 ], [ 165.727426427380749, -15.351901242746909 ], [ 165.101162310659021, -15.419000969538523 ], [ 165.000512720471619, -15.519650559725942 ], [ 164.374248603749891, -15.56438371092035 ], [ 163.767414359782265, -15.742906177672326 ], [ 163.429389161006753, -15.988140145411418 ], [ 163.217294918637805, -16.279769728668715 ], [ 162.919037390306499, -16.942564236071664 ], [ 162.839502049418144, -17.366752720809551 ], [ 162.924208207531677, -17.541069134159574 ], [ 163.152829753061582, -17.82976063917781 ], [ 163.411700014319649, -18.063976589839871 ], [ 163.485662946107652, -18.359828316991951 ], [ 163.793841828557731, -19.013167547786125 ], [ 164.200637953391862, -19.629525312686287 ], [ 164.558125457033952, -20.036321437520396 ], [ 164.927940115974053, -20.295191698778464 ], [ 165.273100464318134, -20.455444717652508 ], [ 165.50731641498021, -20.640352047122555 ], [ 165.901785384516302, -21.096456793148679 ], [ 166.690723323588514, -21.614197315664818 ], [ 167.319408243786683, -22.082629216988941 ], [ 167.861803076898809, -22.625024050101086 ], [ 168.145327648752897, -22.957857243147174 ], [ 168.330234978222961, -23.303017591491265 ], [ 168.576080018604671, -24.036310800530604 ], [ 168.732384184074931, -24.637480667723882 ], [ 168.984875528296101, -25.17853354819783 ], [ 169.441764627363, -26.513130653366908 ], [ 169.477834819394587, -27.030136739153125 ], [ 168.852618157513575, -27.030136739153125 ], [ 168.588103415948552, -26.82573898430741 ], [ 168.011544089007458, -26.473114888093999 ], [ 167.824143916116441, -25.245781793628833 ], [ 167.83846141681056, -23.54588257673316 ], [ 167.722544642870247, -23.226700643214919 ], [ 167.490711094989592, -23.084596000291739 ], [ 167.026562440732334, -23.033658087494413 ], [ 166.350028661692875, -22.71817627128431 ], [ 165.814650801017251, -22.160946253030083 ], [ 165.410385885813213, -21.87686820450832 ], [ 165.115381758502139, -21.702050943879545 ], [ 164.901903143655886, -21.61948255404959 ], [ 164.554152821834947, -21.367819496063348 ], [ 164.129124650720428, -20.899299009391324 ], [ 163.394985082431845, -19.95788262376265 ], [ 163.047234760610877, -19.412173037357693 ], [ 162.931317986670535, -19.047342976096925 ], [ 162.622206589496415, -18.645102021901458 ], [ 162.467650890909283, -18.241905985195842 ], [ 162.467650890909283, -17.837772611529694 ], [ 162.375000016666604, -17.416666666666657 ], [ 162.464857364135753, -17.055540068888504 ], [ 162.725000016666627, -16.583333333333329 ], [ 162.891666683333256, -16.166666666666657 ], [ 163.188308171514649, -15.797143241968914 ], [ 163.491666683333335, -15.566666666666663 ] ] ] } },
{ "type": "Feature", "properties": { "name": "East Iran Belt", "prov_ref": "doi:10.1016/j.jafrearsci.2015.07.018" }, "geometry": { "type": "MultiPolygon", "coordinates": [ [ [ [ 61.347601395516485, 29.498192942332679 ], [ 61.474904736695031, 29.22752585004713 ], [ 61.060824524582031, 29.279285876561286 ], [ 60.724384352240143, 29.117535793704615 ], [ 60.426764199783904, 28.962255714162222 ], [ 60.206149315931604, 28.576990181687695 ], [ 60.147562000669041, 28.960702243463405 ], [ 59.990682948048729, 29.078115946698915 ], [ 59.97863881034899, 29.443304433819861 ], [ 59.880347072991349, 29.582661867454771 ], [ 59.818493011256884, 30.033976580095835 ], [ 59.895810588424965, 30.343607364088715 ], [ 60.030234738881724, 30.597496917655981 ], [ 59.980272183584965, 31.005814652842222 ], [ 60.016557227946109, 31.190188888768475 ], [ 59.98904957481281, 31.528680394721107 ], [ 60.01849586370615, 31.753306826693592 ], [ 59.528823181415753, 32.200818694029529 ], [ 59.120345347813505, 32.259114552827846 ], [ 59.096409703676152, 32.328921471853988 ], [ 59.214500121773682, 32.40064958846321 ], [ 59.235016388177101, 32.487983892005772 ], [ 59.08140408202874, 32.865351078566626 ], [ 59.059101811127263, 32.991152870495483 ], [ 59.204089357309918, 33.157340856298454 ], [ 59.390567330085538, 33.105036412701459 ], [ 59.335552023818991, 33.279490787584457 ], [ 59.463137418807939, 33.378758745824435 ], [ 59.445794729668123, 33.562754434693296 ], [ 59.35948766795633, 33.67477267367321 ], [ 59.411083596489014, 33.746668431486434 ], [ 59.809455928151664, 33.732239373709461 ], [ 59.971692994265887, 33.686080749360016 ], [ 60.102499565080002, 33.60400410886983 ], [ 60.155881498110681, 33.479080365185752 ], [ 60.350526337065979, 33.276304212526426 ], [ 60.433201927728021, 32.66941902179267 ], [ 60.784573188041541, 32.373146252484766 ], [ 60.846579881038039, 32.180920798552201 ], [ 60.8074911219895, 31.876272640769525 ], [ 60.822606892472706, 31.644932293310475 ], [ 60.867954203922288, 31.541928982464423 ], [ 60.70168072860708, 30.804749261514054 ], [ 60.777259581023081, 30.557752356751369 ], [ 60.867248778703534, 30.486203183929707 ], [ 60.792375351506287, 30.244855783753543 ], [ 60.943533056338289, 29.865439482378985 ], [ 61.032599960027575, 29.753206980343474 ], [ 61.197951141351609, 29.679730535369423 ], [ 61.347601395516485, 29.498192942332679 ] ] ], [ [ [ 60.790261713665167, 27.836611934734815 ], [ 60.989654488125097, 28.056455250164966 ], [ 61.267864630638506, 28.069395256793491 ], [ 61.442554720123702, 28.231145339650158 ], [ 61.449024723437979, 28.470535462278015 ], [ 61.552544776466242, 28.593465525249051 ], [ 62.176872066227901, 28.531287453349375 ], [ 62.379582674624004, 28.450305151923288 ], [ 62.527008571639371, 28.271925776958444 ], [ 62.770878630951849, 28.268443521792566 ], [ 62.789456261595227, 27.796762402617304 ], [ 62.851462954591724, 27.503827885149448 ], [ 62.770420737165651, 27.338713036623226 ], [ 62.497590736203421, 27.285619972819958 ], [ 62.271423991362894, 27.149919925915643 ], [ 61.982258593080779, 27.105613927662635 ], [ 61.724023488736883, 26.932006046682446 ], [ 61.342135888774273, 27.026690748060776 ], [ 61.054489907789581, 27.521627462278932 ], [ 60.790261713665167, 27.836611934734815 ] ] ] ] } },
{ "type": "Feature", "properties": { "name": "Greater Antilles Accretionary Complex", "prov_ref": null }, "geometry": { "type": "Polygon", "coordinates": [ [ [ -76.123090960360358, 20.616795893332178 ], [ -75.496699249076499, 20.912919591473937 ], [ -75.556615755400401, 21.111796435619468 ], [ -75.950406774275706, 21.126429015097084 ], [ -76.270670909710418, 21.033018642261965 ], [ -77.169133009019944, 21.2129273834285 ], [ -77.664034623439548, 21.404139370817891 ], [ -78.158936237859137, 21.797811109560758 ], [ -78.710076672099134, 22.090252972626882 ], [ -79.092500646877909, 22.112748500555035 ], [ -79.85222350647939, 22.44022330272529 ], [ -80.087958053068235, 22.597379667117856 ], [ -80.441559872951501, 22.675957849314134 ], [ -80.768968965436002, 22.793825122608556 ], [ -81.16185987641741, 22.859306941105451 ], [ -81.712359324908363, 23.295944260880177 ], [ -82.217445106360287, 23.318227457120702 ], [ -82.774525012373431, 23.154817351356847 ], [ -83.138483884302019, 23.154817351356847 ], [ -84.145711843293981, 22.890673898265089 ], [ -84.564233718757535, 22.693722427458709 ], [ -85.068921862698886, 22.349057353547547 ], [ -85.462824804311637, 21.942844945009391 ], [ -85.733633076670415, 21.61048933802363 ], [ -86.250630687537154, 20.736517186320327 ], [ -86.730699897627701, 20.010258637721805 ], [ -87.124602839240453, 19.284000089123289 ], [ -87.223078574643651, 18.816240345958139 ], [ -87.452795408450697, 18.239825981563911 ], [ -87.752000864197342, 17.239357738911039 ], [ -87.985755126499413, 16.781199384798974 ], [ -88.1086, 17.1462 ], [ -88.013919087399771, 17.67430601524358 ], [ -87.7963, 17.9413 ], [ -87.6969, 18.1798 ], [ -87.5975, 18.6454 ], [ -87.4271, 19.1906 ], [ -87.219343192319613, 20.326084624853451 ], [ -86.77650717272077, 20.802133345922204 ], [ -86.574414646984067, 20.974980946591046 ], [ -86.2062, 21.6211 ], [ -86.1494, 21.8596 ], [ -85.9791, 22.1322 ], [ -85.489017222406872, 22.420983172835388 ], [ -85.509610371027989, 22.80881053295986 ], [ -85.332142991701971, 23.119378446780388 ], [ -85.24340930203897, 23.370790567492239 ], [ -85.316619865469178, 23.661083717339483 ], [ -85.168830043878472, 23.626978373895472 ], [ -85.001304515275791, 23.507366370745451 ], [ -84.858501791592715, 23.32225172893407 ], [ -84.625786241886985, 23.227049913145358 ], [ -84.403648671713313, 23.369852636828426 ], [ -84.356047763818964, 23.565545258171888 ], [ -84.287775338241531, 23.592873030451464 ], [ -84.071774829762802, 23.536030791378113 ], [ -83.816570807682922, 23.766526869281389 ], [ -83.770295801857955, 23.859852816300275 ], [ -83.530965360316799, 23.613146166066244 ], [ -83.426270935905677, 23.439641187075985 ], [ -83.023356020617243, 23.397751757823592 ], [ -81.730705760817187, 23.540061878168551 ], [ -81.53283723879693, 23.515381673108074 ], [ -81.042384341382871, 23.525190731056355 ], [ -80.843314671527864, 23.38507704584228 ], [ -80.40507847879752, 23.370221581681928 ], [ -79.744010323661925, 23.058256834314566 ], [ -79.439473308374744, 22.835424871909311 ], [ -79.209213613889304, 22.761147551107555 ], [ -78.897248866521949, 22.835424871909311 ], [ -78.22127617723288, 22.613879418322572 ], [ -77.753378126174951, 22.360050018778093 ], [ -77.274999977832039, 22.013759454617677 ], [ -76.606540602407776, 21.603696140281784 ], [ -75.415671799130934, 21.204867437297562 ], [ -75.224683406152579, 21.182398214594226 ], [ -74.488816362618309, 20.907150236478351 ], [ -74.264124135584936, 20.727396454851661 ], [ -73.752949319084024, 20.564494590252469 ], [ -73.2385, 20.2913 ], [ -72.3322, 20.331 ], [ -71.2771, 20.2005 ], [ -69.9775, 19.8015 ], [ -68.8528, 19.589 ], [ -68.0218, 19.687 ], [ -66.2594, 19.8246 ], [ -65.1285, 19.8329 ], [ -63.3598, 19.6915 ], [ -62.8467, 19.5743 ], [ -62.1765, 19.2752 ], [ -62.683582538215802, 18.991086371571676 ], [ -62.971752613699664, 18.906330467017597 ], [ -63.505714812390345, 18.855476924285153 ], [ -63.717604573775532, 18.787672200641889 ], [ -63.81899540175904, 19.030415019893606 ], [ -64.71859206388271, 18.992931825638447 ], [ -65.737945679975383, 18.391738778937054 ], [ -66.731746991168407, 18.479739611155765 ], [ -67.259048961825115, 18.37563999622332 ], [ -68.346242062623844, 18.644439539180485 ], [ -69.42954443719789, 19.107238627044499 ], [ -70.167660860446574, 19.238218585003303 ], [ -71.250960524518106, 19.610602844527889 ], [ -71.95874868398397, 19.729439376078176 ], [ -72.588158547356414, 19.915280875048015 ], [ -73.299073951903353, 20.050693333056952 ], [ -74.271177650213716, 19.997750077791011 ], [ -74.556269182024224, 19.913508325743503 ], [ -74.891890112524209, 19.882595871618502 ], [ -75.033166635276487, 19.918690973248864 ], [ -75.10971341875954, 19.978815863122659 ], [ -75.176435113641773, 20.192325286745806 ], [ -75.481968414407703, 20.391840614050547 ], [ -75.853144625222399, 20.470574961799116 ], [ -76.123090960360358, 20.616795893332178 ] ] ] } },
{ "type": "Feature", "properties": { "name": "Nicaragua Plateau", "prov_ref": null }, "geometry": { "type": "Polygon", "coordinates": [ [ [ -82.588650557513759, 11.512465126029163 ], [ -81.989489840097832, 12.278556288715709 ], [ -81.38869170318101, 14.609653059952976 ], [ -80.908053193647547, 15.23448312234647 ], [ -80.763861640787511, 15.787217408309946 ], [ -80.835957417217529, 16.291887843320076 ], [ -81.124340522937601, 17.01284560762026 ], [ -81.559875617706808, 17.698515641912152 ], [ -81.052180157590826, 17.870477007435309 ], [ -80.5, 17.991666650000028 ], [ -79.383333333333326, 18.124999983333382 ], [ -79.279278932394959, 18.078355423177086 ], [ -79.044649540668942, 18.092157152102146 ], [ -78.414370586424539, 18.046151389018611 ], [ -78.281822661624588, 18.087556575793791 ], [ -78.250443188235806, 18.069746604410966 ], [ -78.235009523018391, 17.899976287019246 ], [ -77.895468888234944, 17.722489137018815 ], [ -77.147343261317417, 17.703339658342291 ], [ -76.830545988232373, 17.645320810931679 ], [ -76.583607344753517, 17.660754476149112 ], [ -76.421553859970501, 17.722489137018815 ], [ -76.066579559969639, 17.699338639192685 ], [ -75.634436933881631, 17.915409952236679 ], [ -76.097446890404498, 18.038879273976114 ], [ -75.857734510561144, 18.119013547711283 ], [ -75.064149826124719, 18.191986852027277 ], [ -74.726648293663246, 18.292325145461767 ], [ -74.516850043754758, 18.438271754093755 ], [ -74.197591837372286, 18.529488384488751 ], [ -73.404007152935847, 18.611583351844242 ], [ -72.902315685763384, 18.629826677923241 ], [ -72.054001023089953, 18.575096699686245 ], [ -71.734742816707481, 18.493001732330754 ], [ -71.141834719140036, 18.264960156343271 ], [ -70.961939759187104, 18.109647729223123 ], [ -71.182885167873025, 17.689204151222299 ], [ -71.371315363627119, 17.532123108039073 ], [ -71.469184647587227, 17.229328382579414 ], [ -71.911065825713735, 17.068127096771633 ], [ -71.760728183365629, 17.454760070803005 ], [ -73.047382588001355, 17.446899350867504 ], [ -73.511403600495399, 17.374988913219127 ], [ -73.667124951694987, 16.513330769914688 ], [ -74.020093347747405, 16.10845525679574 ], [ -74.341917473559917, 15.807393977809852 ], [ -74.850607220811924, 15.599765509543722 ], [ -75.670739670463135, 15.070312915465092 ], [ -76.106759453822008, 14.862684447198962 ], [ -76.532397813767574, 14.603148861866302 ], [ -78.110608023769245, 13.770735307248685 ], [ -78.422235020285328, 13.535527788462916 ], [ -80.521845999676032, 12.54039966802253 ], [ -81.418554855457486, 12.092045240131807 ], [ -82.140296129623039, 11.687432707645055 ], [ -82.588650557513759, 11.512465126029163 ] ] ] } },
{ "type": "Feature", "properties": { "name": "Mosquito Lowlands", "prov_ref": "Marshall2007" }, "geometry": { "type": "Polygon", "coordinates": [ [ [ -81.559875617706808, 17.698515641912152 ], [ -81.124340522937601, 17.01284560762026 ], [ -80.835957417217529, 16.291887843320076 ], [ -80.763861640787511, 15.787217408309946 ], [ -80.908053193647547, 15.23448312234647 ], [ -81.38869170318101, 14.609653059952976 ], [ -81.989489840097832, 12.278556288715709 ], [ -82.588650557513759, 11.512465126029163 ], [ -83.113553302361439, 11.337497544413271 ], [ -83.618825895334751, 11.05635332521484 ], [ -83.398452343742946, 10.394049017190321 ], [ -83.229931392525671, 10.253762961137278 ], [ -83.380190768694618, 10.175064433638417 ], [ -83.575098700543521, 10.191745956986024 ], [ -83.644752195522031, 10.119795543834277 ], [ -83.761420546364747, 10.2473848390627 ], [ -84.111425598892936, 10.330290386177104 ], [ -84.331799150484756, 10.445046557327112 ], [ -84.539209551982935, 10.445046557327112 ], [ -84.863288304323845, 10.789059165062135 ], [ -85.29107225741383, 11.030907138863425 ], [ -85.40774060825656, 11.285269060709263 ], [ -85.394777458162906, 11.463188733346636 ], [ -85.49848265891201, 11.640996440595861 ], [ -85.667003610129271, 11.767932486393917 ], [ -85.633439613325308, 11.890007116140065 ], [ -85.401559349144037, 12.023784191629266 ], [ -85.660195028423161, 12.389441531299749 ], [ -86.150710971883555, 12.639158738879592 ], [ -86.729981917807436, 12.730690111184574 ], [ -87.118876420616516, 12.939237650625138 ], [ -87.334568599494403, 13.198099136283723 ], [ -87.74110762511107, 13.500807987082153 ], [ -88.06518637745198, 13.513412588637804 ], [ -88.376301979699221, 13.683509254716677 ], [ -88.661491281759226, 13.708698346115419 ], [ -89.296685636347419, 13.903821873842126 ], [ -89.387427687002855, 14.023332611242395 ], [ -89.685580139156471, 14.0736343330308 ], [ -89.854101090373746, 14.061059938840856 ], [ -90.009658891497381, 14.174204534671958 ], [ -90.34670079393193, 14.312415737536544 ], [ -90.554111195430096, 14.450541933558821 ], [ -90.618926945898281, 14.632486225365136 ], [ -91.573473992548273, 15.021749437085784 ], [ -92.227007936086878, 15.382932640338437 ], [ -91.397529215371478, 15.188145862121813 ], [ -91.059310537383652, 14.944754850859546 ], [ -90.639487252157394, 14.845308825608827 ], [ -90.235493070834494, 14.844713759712155 ], [ -89.932388728869796, 14.895585606656461 ], [ -89.361501386815576, 15.121100996382376 ], [ -89.184595645752722, 14.253211104147939 ], [ -88.777676124647542, 14.211829457933852 ], [ -87.756928851366723, 13.901467111328198 ], [ -87.276060228257066, 13.821912980881041 ], [ -86.888789904155004, 13.676686609342767 ], [ -86.446195248038364, 13.621362277328185 ], [ -86.121164797452693, 13.863406229891975 ], [ -85.443448110804368, 14.129497472304958 ], [ -85.305482826033867, 14.267462757075466 ], [ -85.022982481027583, 14.724062151911184 ], [ -84.661644830438163, 14.957289180927992 ], [ -84.500685331539245, 15.13467311849007 ], [ -84.10943597435201, 15.939453195325191 ], [ -83.611293322030491, 16.276432048366217 ], [ -82.384549411421347, 16.90089190642523 ], [ -81.713418073751782, 17.412771740241002 ], [ -81.613101754654451, 17.694421323685411 ], [ -81.559875617706808, 17.698515641912152 ] ] ] } },
{ "type": "Feature", "properties": { "name": "Okanagan Terrane", "prov_ref": "Colpron&Nelson2011" }, "geometry": { "type": "Polygon", "coordinates": [ [ [ -118.966787943500194, 50.194763467956307 ], [ -118.723652912534675, 50.092524960154492 ], [ -118.675591005844865, 50.044937819267751 ], [ -118.623574837410843, 49.806246139475213 ], [ -118.554939679012307, 49.843527300746061 ], [ -118.406495110393848, 49.844794155992346 ], [ -118.114463669996482, 49.966640520116783 ], [ -117.724632162287705, 49.917038162296862 ], [ -117.402972100447897, 49.915132138628323 ], [ -117.4086792931693, 49.820399501391258 ], [ -117.5211685131124, 49.623540857532483 ], [ -117.580966122139301, 49.394050491998023 ], [ -117.639057332665942, 49.30783008826036 ], [ -117.641557682119753, 49.15023408406627 ], [ -118.212707191950926, 49.036045083966606 ], [ -118.420398177706886, 49.196522747400387 ], [ -118.366490108610449, 49.385525806501718 ], [ -118.365687565336785, 49.514251617585991 ], [ -118.290119494694324, 49.614678967022734 ], [ -118.58321457997647, 49.597645448334966 ], [ -119.068595517852174, 49.667546594862287 ], [ -119.151316920171595, 49.627268170775032 ], [ -119.202173426826832, 49.487178664228779 ], [ -119.21809277680471, 49.268188846077734 ], [ -119.178601854487042, 49.187274442563549 ], [ -119.001115132301265, 49.14310691986234 ], [ -118.905630033456134, 49.163260924387131 ], [ -118.730164279665345, 49.13379022570593 ], [ -118.632732697205839, 49.145892236676026 ], [ -118.550610126560301, 49.197711619341838 ], [ -118.549570050050519, 49.140617776800816 ], [ -118.637416057110585, 49.10216814230423 ], [ -118.630074689780017, 48.927214507948293 ], [ -118.829216643889467, 48.753870552038208 ], [ -118.88909918933588, 48.736997800647508 ], [ -118.944787305416128, 48.779381280399377 ], [ -118.983649669785919, 48.980802030308055 ], [ -119.040929180500939, 49.01928353023483 ], [ -119.058953883339328, 48.930258888529615 ], [ -119.148683244875329, 48.891708211602669 ], [ -119.447878106438509, 49.082933363803363 ], [ -119.543554444813324, 49.110594313368594 ], [ -119.541578713675889, 49.067309028163734 ], [ -119.416436003146103, 48.984250303965503 ], [ -119.405802647332948, 48.940856291182037 ], [ -119.595278824753038, 48.942718716543119 ], [ -119.635349769253324, 48.909592899635278 ], [ -119.595123159606558, 48.820169006714195 ], [ -119.647350510568046, 48.803727532379874 ], [ -119.760405638801458, 48.924333185780156 ], [ -119.929024415913759, 48.982264694703353 ], [ -120.047139370607539, 49.156655507702482 ], [ -120.135147125917754, 49.18207465138412 ], [ -120.023123325757169, 49.32925387145945 ], [ -119.929013865118591, 49.316347115259774 ], [ -119.858867399787727, 49.421453325224071 ], [ -119.806068530457537, 49.415635818620792 ], [ -119.786315857393646, 49.335354371270974 ], [ -119.806619901392196, 49.281508842726453 ], [ -119.74014683573013, 49.212552344880386 ], [ -119.706325076357871, 49.21675714740789 ], [ -119.701752638880507, 49.278285027909774 ], [ -119.591955327777626, 49.281493747488966 ], [ -119.616159719492273, 49.582472861509395 ], [ -119.760535777687437, 49.763433587428622 ], [ -119.428921634537033, 49.85004414395722 ], [ -119.387936431308674, 50.129126416871095 ], [ -119.304610508924085, 50.202803441415135 ], [ -118.966787943500194, 50.194763467956307 ] ] ] } },
{ "type": "Feature", "properties": { "name": "Crescent", "prov_ref": "Colpron&Nelson2011" }, "geometry": { "type": "Polygon", "coordinates": [ [ [ -126.528051191263231, 49.391684826855212 ], [ -126.326305356757658, 49.327380578704584 ], [ -125.321631868077091, 48.789776860887208 ], [ -124.76632736917324, 48.549911133480201 ], [ -124.303583397036604, 48.498506061268294 ], [ -123.729238831538595, 48.493418663618549 ], [ -123.00212730295172, 48.313567389085989 ], [ -122.835873903740122, 48.181676529764637 ], [ -122.714990265073652, 47.999285303213433 ], [ -123.569475627828751, 47.997774879873624 ], [ -124.286066402491144, 48.090789201125865 ], [ -124.363203915991576, 48.155170590318768 ], [ -124.859915744921892, 48.395533949143086 ], [ -126.13891082260669, 48.828523731292307 ], [ -126.360379883336421, 48.936838623655269 ], [ -126.557967998684944, 49.1237563892902 ], [ -126.69467730737604, 49.430956935391094 ], [ -126.786671297094998, 49.499105867329746 ], [ -126.528051191263231, 49.391684826855212 ] ] ] } },
{ "type": "Feature", "properties": { "name": "Yakutat", "prov_ref": "Colpron&Nelson2011" }, "geometry": { "type": "Polygon", "coordinates": [ [ [ -144.545740250416856, 60.439989910391162 ], [ -143.570019488473037, 60.573507474934161 ], [ -142.935099744377652, 60.593622677958528 ], [ -140.496038820637153, 60.356744993352159 ], [ -139.527928531048673, 60.125444890917414 ], [ -138.898658289230241, 59.763361741529508 ], [ -137.536488442271263, 58.704558013148748 ], [ -137.073765605483402, 58.405621927405896 ], [ -136.518830303335932, 57.65569507505441 ], [ -136.265530497463402, 57.109968532315065 ], [ -136.516666666666652, 57.275000016666638 ], [ -136.749649998554759, 57.538824364796874 ], [ -136.950591257930853, 57.616511618601628 ], [ -137.24978877549816, 57.705910790107204 ], [ -137.767709239346686, 57.74128253927919 ], [ -139.271824658190411, 58.065310338286373 ], [ -139.589530946681464, 58.152234530792768 ], [ -140.166794411706491, 58.43849162124561 ], [ -140.499188836303574, 58.544792454663359 ], [ -141.94731682875485, 58.897813238381893 ], [ -143.38335752094693, 59.310315928849761 ], [ -143.570123691580335, 59.335541019937985 ], [ -143.859361221970772, 59.262770521684452 ], [ -144.427653631635138, 59.238880044536586 ], [ -144.834474811215387, 59.121245044508363 ], [ -145.235730908528808, 59.155802977648747 ], [ -145.539944698216743, 59.136965423655703 ], [ -145.320964160638255, 59.496306982455991 ], [ -145.158029149637628, 59.68684175134306 ], [ -144.531860540278501, 60.21370250070165 ], [ -144.528816405380468, 60.303276770067662 ], [ -144.644249288961078, 60.419097635450719 ], [ -144.545740250416856, 60.439989910391162 ] ] ] } },
{ "type": "Feature", "properties": { "name": "Oaxaquia Plateau", "prov_ref": "Ramos&Aleman2000" }, "geometry": { "type": "Polygon", "coordinates": [ [ [ -77.051723714680804, -13.236008442928155 ], [ -77.123314448358002, -13.461330523281664 ], [ -77.230700548873813, -13.582562839291567 ], [ -77.427575066486128, -13.582562839291567 ], [ -77.570756533840523, -13.478653515887419 ], [ -77.749733368033532, -13.183978755121064 ], [ -77.875017151968635, -13.079883353264618 ], [ -78.07189166958095, -13.027817719597701 ], [ -78.232970820354666, -12.906285027154263 ], [ -78.340356920870477, -12.732555508704841 ], [ -78.519333755063471, -12.315078383896799 ], [ -78.823594373191582, -11.879434519863119 ], [ -78.859389740030181, -11.722414421385016 ], [ -78.984673523965299, -11.565296407900831 ], [ -79.235241091835491, -11.390607362551167 ], [ -79.5855059392333, -11.08380874074415 ], [ -80.80833331666669, -8.933333333333323 ], [ -81.008333316666693, -8.516666666666666 ], [ -81.42607819622647, -7.456273127446964 ], [ -81.586904898293824, -6.898740560280106 ], [ -81.794609820795529, -6.545906895584838 ], [ -81.633530670021827, -6.421715780452321 ], [ -81.400860785570913, -6.439459555168096 ], [ -81.1323955342814, -6.545906895584838 ], [ -80.917623333249793, -6.652327733337989 ], [ -80.452283564347965, -6.971427628411957 ], [ -80.219613679897051, -7.219443074093032 ], [ -79.986943795446152, -7.55578399717632 ], [ -79.646887810479427, -7.891825016063622 ], [ -79.342627192351301, -8.298194106724004 ], [ -79.145752674739001, -8.774627363414551 ], [ -78.590924488740669, -9.443990501003027 ], [ -78.376152287709061, -10.147014276767083 ], [ -78.07189166958095, -10.638119816412726 ], [ -77.910812518807234, -11.093366107093416 ], [ -77.857119468549342, -11.408081600579971 ], [ -77.499165800163325, -11.809659969323514 ], [ -77.427575066486128, -12.140914061492351 ], [ -77.302291282550996, -12.454319143610084 ], [ -77.338086649389609, -12.610867588992397 ], [ -77.087519081519389, -12.99310068272697 ], [ -77.051723714680804, -13.236008442928155 ] ] ] } }
]
}
