{
"type": "FeatureCollection",
"name": "tailings_internal",
"crs": { "type": "name", "properties": { "name": "urn:ogc:def:crs:OGC:1.3:CRS84" } },
"features": [
{ "type": "Feature", "properties": { "mine": "KCGM", "tsf": "Fimiston II", "owner_company": "Barrick Gold Corporation", "country": "Australia", "status": "Active", "storage_m3": 119000000.0, "dist_km": 4.1, "conf": "high", "unit_name": "ultramafic and minor mafic rocks 74475", "unit_lith": "igneous ultramafic intrusive; meta-igneous ultramafic volcanic" }, "geometry": { "type": "Point", "coordinates": [ 121.546371, -30.751359 ] } },
{ "type": "Feature", "properties": { "mine": "KCGM", "tsf": "Gidji I", "owner_company": "Barrick Gold Corporation", "country": "Australia", "status": "Inactive Care and Maintenance", "storage_m3": 3000000.0, "dist_km": 2.7, "conf": "high", "unit_name": "ultramafic and minor mafic rocks 74475", "unit_lith": "igneous ultramafic intrusive; meta-igneous ultramafic volcanic" }, "geometry": { "type": "Point", "coordinates": [ 121.453803, -30.58317 ] } },
{ "type": "Feature", "properties": { "mine": "KCGM", "tsf": "Gidji II", "owner_company": "Barrick Gold Corporation", "country": "Australia", "status": "Active", "storage_m3": 1000000.0, "dist_km": 2.7, "conf": "high", "unit_name": "ultramafic and minor mafic rocks 74475", "unit_lith": "igneous ultramafic intrusive; meta-igneous ultramafic volcanic" }, "geometry": { "type": "Point", "coordinates": [ 121.453803, -30.58317 ] } },
{ "type": "Feature", "properties": { "mine": "Kambalda", "tsf": "Kambalda TSF", "owner_company": "BHP Group", "country": "Australia", "status": "Inactive", "storage_m3": 25900000.0, "dist_km": 0.9, "conf": "high", "unit_name": "ultramafic and minor mafic rocks 74475", "unit_lith": "igneous ultramafic intrusive; meta-igneous ultramafic volcanic" }, "geometry": { "type": "Point", "coordinates": [ 121.688347, -31.170604 ] } },
{ "type": "Feature", "properties": { "mine": "Leinster", "tsf": "Leinster TSF 1", "owner_company": "BHP Group", "country": "Australia", "status": "Inactive", "storage_m3": 2000000.0, "dist_km": 2.9, "conf": "high", "unit_name": "ultramafic and minor mafic rocks 74475", "unit_lith": "igneous ultramafic intrusive; meta-igneous ultramafic volcanic" }, "geometry": { "type": "Point", "coordinates": [ 120.696149, -27.80918 ] } },
{ "type": "Feature", "properties": { "mine": null, "tsf": "Ravensthorpe Nickel Operation TSF", "owner_company": "First Quantum Minerals", "country": "Australia", "status": "Active", "storage_m3": 74800000.0, "dist_km": 0.2, "conf": "high", "unit_name": "ultramafic rocks 74480", "unit_lith": "igneous ultramafic intrusive; igneous ultramafic volcanic" }, "geometry": { "type": "Point", "coordinates": [ 120.392475, -33.689214 ] } },
{ "type": "Feature", "properties": { "mine": "Iron Bridge", "tsf": "TSF 1", "owner_company": "Fortescue Metals Group", "country": "Australia", "status": "Inactive Care and Maintenance", "storage_m3": 300000.0, "dist_km": 0.6, "conf": "high", "unit_name": "Dalton Suite", "unit_lith": "igneous mafic intrusive; igneous ultramafic intrusive" }, "geometry": { "type": "Point", "coordinates": [ 119.05, -21.2 ] } },
{ "type": "Feature", "properties": { "mine": "George Fisher Mine", "tsf": "GFM TSF (Main Dam)", "owner_company": "Glencore", "country": "Australia", "status": "Inactive", "storage_m3": 3000000.0, "dist_km": 3.9, "conf": "high", "unit_name": "mafic, ultramafic, intermediate intrusions 74431", "unit_lith": "igneous mafic intrusive; igneous ultramafic intrusive" }, "geometry": { "type": "Point", "coordinates": [ 139.464722, -20.559167 ] } },
{ "type": "Feature", "properties": { "mine": "Murrin Murrin Mine", "tsf": "Paddock TSF - North (North Dam)", "owner_company": "Glencore", "country": "Australia", "status": "Inactive", "storage_m3": 17800000.0, "dist_km": 2.3, "conf": "high", "unit_name": "ultramafic and minor mafic rocks 74475", "unit_lith": "igneous ultramafic intrusive; meta-igneous ultramafic volcanic" }, "geometry": { "type": "Point", "coordinates": [ 121.917506, -28.769014 ] } },
{ "type": "Feature", "properties": { "mine": "Murrin Murrin Mine", "tsf": "Paddock TSF - South (South Dam)", "owner_company": "Glencore", "country": "Australia", "status": "Inactive", "storage_m3": 18000000.0, "dist_km": 2.0, "conf": "high", "unit_name": "ultramafic and minor mafic rocks 74475", "unit_lith": "igneous ultramafic intrusive; meta-igneous ultramafic volcanic" }, "geometry": { "type": "Point", "coordinates": [ 121.908517, -28.75815 ] } },
{ "type": "Feature", "properties": { "mine": "Agnew", "tsf": "Agnew Redeemer", "owner_company": "Gold Fields", "country": "Australia", "status": "Inactive", "storage_m3": 10500000.0, "dist_km": 4.9, "conf": "high", "unit_name": "ultramafic and minor mafic rocks 74475", "unit_lith": "igneous ultramafic intrusive; meta-igneous ultramafic volcanic" }, "geometry": { "type": "Point", "coordinates": [ 120.483917, -28.062694 ] } },
{ "type": "Feature", "properties": { "mine": "Lawlers", "tsf": "Lawlers CI TSF", "owner_company": "Gold Fields", "country": "Australia", "status": "Closed", "storage_m3": 670000.0, "dist_km": 0.0, "conf": "high", "unit_name": "ultramafic and minor mafic rocks 74475", "unit_lith": "igneous ultramafic intrusive; meta-igneous ultramafic volcanic" }, "geometry": { "type": "Point", "coordinates": [ 120.552286, -28.083511 ] } },
{ "type": "Feature", "properties": { "mine": "Lawlers", "tsf": "Lawlers GEP TSF", "owner_company": "Gold Fields", "country": "Australia", "status": "Closed", "storage_m3": 1281409.0, "dist_km": 0.5, "conf": "high", "unit_name": "ultramafic and minor mafic rocks 74475", "unit_lith": "igneous ultramafic intrusive; meta-igneous ultramafic volcanic" }, "geometry": { "type": "Point", "coordinates": [ 120.538333, -28.078944 ] } },
{ "type": "Feature", "properties": { "mine": "Lawlers", "tsf": "Lawlers HPI TSF", "owner_company": "Gold Fields", "country": "Australia", "status": "Closed", "storage_m3": 971951.0, "dist_km": 0.0, "conf": "high", "unit_name": "ultramafic and minor mafic rocks 74475", "unit_lith": "igneous ultramafic intrusive; meta-igneous ultramafic volcanic" }, "geometry": { "type": "Point", "coordinates": [ 120.558667, -28.084439 ] } },
{ "type": "Feature", "properties": { "mine": "Lawlers", "tsf": "Lawlers LEP TSF", "owner_company": "Gold Fields", "country": "Australia", "status": "Closed", "storage_m3": 1216794.0, "dist_km": 0.1, "conf": "high", "unit_name": "ultramafic and minor mafic rocks 74475", "unit_lith": "igneous ultramafic intrusive; meta-igneous ultramafic volcanic" }, "geometry": { "type": "Point", "coordinates": [ 120.543222, -28.078833 ] } },
{ "type": "Feature", "properties": { "mine": "Lawlers", "tsf": "Lawlers TSF 1", "owner_company": "Gold Fields", "country": "Australia", "status": "Closed", "storage_m3": 511066.0, "dist_km": 0.1, "conf": "high", "unit_name": "ultramafic and minor mafic rocks 74475", "unit_lith": "igneous ultramafic intrusive; meta-igneous ultramafic volcanic" }, "geometry": { "type": "Point", "coordinates": [ 120.540558, -28.076253 ] } },
{ "type": "Feature", "properties": { "mine": "Lawlers", "tsf": "Lawlers TSF 2", "owner_company": "Gold Fields", "country": "Australia", "status": "Closed", "storage_m3": 4800000.0, "dist_km": 1.0, "conf": "high", "unit_name": "ultramafic and minor mafic rocks 74475", "unit_lith": "igneous ultramafic intrusive; meta-igneous ultramafic volcanic" }, "geometry": { "type": "Point", "coordinates": [ 120.536378, -28.083208 ] } },
{ "type": "Feature", "properties": { "mine": "Lawlers", "tsf": "Lawlers TSF 3", "owner_company": "Gold Fields", "country": "Australia", "status": "Closed", "storage_m3": 2500000.0, "dist_km": 0.2, "conf": "high", "unit_name": "ultramafic and minor mafic rocks 74475", "unit_lith": "igneous ultramafic intrusive; meta-igneous ultramafic volcanic" }, "geometry": { "type": "Point", "coordinates": [ 120.543644, -28.080961 ] } },
{ "type": "Feature", "properties": { "mine": "St. Ives", "tsf": "St. Ives TSF 1", "owner_company": "Gold Fields", "country": "Australia", "status": "Re-mining", "storage_m3": 12000000.0, "dist_km": 0.2, "conf": "high", "unit_name": "ultramafic and minor mafic rocks 74475", "unit_lith": "igneous ultramafic intrusive; meta-igneous ultramafic volcanic" }, "geometry": { "type": "Point", "coordinates": [ 121.793611, -31.378611 ] } },
{ "type": "Feature", "properties": { "mine": "St. Ives", "tsf": "St. Ives TSF 2", "owner_company": "Gold Fields", "country": "Australia", "status": "Inactive Care and Maintenance", "storage_m3": 8800000.0, "dist_km": 0.5, "conf": "high", "unit_name": "ultramafic and minor mafic rocks 74475", "unit_lith": "igneous ultramafic intrusive; meta-igneous ultramafic volcanic" }, "geometry": { "type": "Point", "coordinates": [ 121.797222, -31.386111 ] } },
{ "type": "Feature", "properties": { "mine": "St. Ives", "tsf": "St. Ives TSF 3", "owner_company": "Gold Fields", "country": "Australia", "status": "Inactive Care and Maintenance", "storage_m3": 17400000.0, "dist_km": 1.1, "conf": "high", "unit_name": "ultramafic and minor mafic rocks 74475", "unit_lith": "igneous ultramafic intrusive; meta-igneous ultramafic volcanic" }, "geometry": { "type": "Point", "coordinates": [ 121.784167, -31.380278 ] } },
{ "type": "Feature", "properties": { "mine": "Long OK", "tsf": "Long OK TSF", "owner_company": "Independence Group", "country": "Australia", "status": "Closed", "storage_m3": 75000.0, "dist_km": 2.2, "conf": "high", "unit_name": "ultramafic and minor mafic rocks 74475", "unit_lith": "igneous ultramafic intrusive; meta-igneous ultramafic volcanic" }, "geometry": { "type": "Point", "coordinates": [ 121.685968, -31.186989 ] } },
{ "type": "Feature", "properties": { "mine": "Long South Kambalda", "tsf": "Long South Kambalda TSF", "owner_company": "Independence Group", "country": "Australia", "status": "Closed", "storage_m3": 300000.0, "dist_km": 1.7, "conf": "high", "unit_name": "ultramafic and minor mafic rocks 74475", "unit_lith": "igneous ultramafic intrusive; meta-igneous ultramafic volcanic" }, "geometry": { "type": "Point", "coordinates": [ 121.682546, -31.183229 ] } },
{ "type": "Feature", "properties": { "mine": "Wodgina", "tsf": "Wodgina TSF1", "owner_company": "Mineral Resources", "country": "Australia", "status": "Closed", "storage_m3": null, "dist_km": 0.2, "conf": "high", "unit_name": "Pilbara Supergroup - ultramafic rocks", "unit_lith": "igneous ultramafic intrusive; meta-igneous ultramafic volcanic" }, "geometry": { "type": "Point", "coordinates": [ 118.67333, -21.18138 ] } },
{ "type": "Feature", "properties": { "mine": "Wodgina", "tsf": "Wodgina TSF2", "owner_company": "Mineral Resources", "country": "Australia", "status": "Closed", "storage_m3": null, "dist_km": 0.3, "conf": "high", "unit_name": "Pilbara Supergroup - ultramafic rocks", "unit_lith": "igneous ultramafic intrusive; meta-igneous ultramafic volcanic" }, "geometry": { "type": "Point", "coordinates": [ 118.67944, -21.18083 ] } },
{ "type": "Feature", "properties": { "mine": "Wodgina", "tsf": "Wodgina TSF3", "owner_company": "Mineral Resources", "country": "Australia", "status": "Closed", "storage_m3": 10380365.0, "dist_km": 1.4, "conf": "high", "unit_name": "Pilbara Supergroup - ultramafic rocks", "unit_lith": "igneous ultramafic intrusive; meta-igneous ultramafic volcanic" }, "geometry": { "type": "Point", "coordinates": [ 118.663888, -21.187777 ] } },
{ "type": "Feature", "properties": { "mine": "Wodgina", "tsf": "Wodgina TSF3E", "owner_company": "Mineral Resources", "country": "Australia", "status": "Active", "storage_m3": 218588.0, "dist_km": 1.0, "conf": "high", "unit_name": "Pilbara Supergroup - ultramafic rocks", "unit_lith": "igneous ultramafic intrusive; meta-igneous ultramafic volcanic" }, "geometry": { "type": "Point", "coordinates": [ 118.664897, -21.184153 ] } },
{ "type": "Feature", "properties": { "mine": "Mt Marion", "tsf": "Mt Marion GCB", "owner_company": "Mineral Resources", "country": "Australia", "status": "Active", "storage_m3": 1900000.0, "dist_km": 0.6, "conf": "high", "unit_name": "ultramafic and meta-ultramafic rock 74281", "unit_lith": "meta-igneous ultramafic intrusive" }, "geometry": { "type": "Point", "coordinates": [ 121.4325, -31.08083 ] } },
{ "type": "Feature", "properties": { "mine": "Rosebery Bobadil Dam", "tsf": "Rosebery Bobadil Dam", "owner_company": "MMG", "country": "Australia", "status": "Inactive Care and Maintenance", "storage_m3": 22900000.0, "dist_km": 3.0, "conf": "high", "unit_name": "ultramafic rock 69569", "unit_lith": "igneous ultramafic; meta-igneous ultramafic" }, "geometry": { "type": "Point", "coordinates": [ 145.513056, -41.750833 ] } },
{ "type": "Feature", "properties": { "mine": "KCGM", "tsf": "Fimiston II", "owner_company": "Newmont Goldcorp", "country": "Australia", "status": "Active", "storage_m3": 120000000.0, "dist_km": 4.1, "conf": "high", "unit_name": "ultramafic and minor mafic rocks 74475", "unit_lith": "igneous ultramafic intrusive; meta-igneous ultramafic volcanic" }, "geometry": { "type": "Point", "coordinates": [ 121.546371, -30.751359 ] } },
{ "type": "Feature", "properties": { "mine": "KCGM", "tsf": "Gidji I", "owner_company": "Newmont Goldcorp", "country": "Australia", "status": "Inactive Care and Maintenance", "storage_m3": 3000000.0, "dist_km": 2.7, "conf": "high", "unit_name": "ultramafic and minor mafic rocks 74475", "unit_lith": "igneous ultramafic intrusive; meta-igneous ultramafic volcanic" }, "geometry": { "type": "Point", "coordinates": [ 121.453803, -30.58317 ] } },
{ "type": "Feature", "properties": { "mine": "KCGM", "tsf": "Gidji II", "owner_company": "Newmont Goldcorp", "country": "Australia", "status": "Active", "storage_m3": 1000000.0, "dist_km": 2.7, "conf": "high", "unit_name": "ultramafic and minor mafic rocks 74475", "unit_lith": "igneous ultramafic intrusive; meta-igneous ultramafic volcanic" }, "geometry": { "type": "Point", "coordinates": [ 121.453803, -30.58317 ] } },
{ "type": "Feature", "properties": { "mine": "Garden Well", "tsf": "GWTSF1", "owner_company": "Regis Resources", "country": "Australia", "status": "Active", "storage_m3": 23000000.0, "dist_km": 3.6, "conf": "high", "unit_name": "ultramafic and minor mafic rocks 74475", "unit_lith": "igneous ultramafic intrusive; meta-igneous ultramafic volcanic" }, "geometry": { "type": "Point", "coordinates": [ 122.373889, -27.894444 ] } },
{ "type": "Feature", "properties": { "mine": "Garden Well", "tsf": "GWTSF2", "owner_company": "Regis Resources", "country": "Australia", "status": "Inactive", "storage_m3": 5000000.0, "dist_km": 2.8, "conf": "high", "unit_name": "ultramafic and minor mafic rocks 74475", "unit_lith": "igneous ultramafic intrusive; meta-igneous ultramafic volcanic" }, "geometry": { "type": "Point", "coordinates": [ 122.370556, -27.904167 ] } },
{ "type": "Feature", "properties": { "mine": "Moolart Well Gold Mine", "tsf": "BANTSF1", "owner_company": "Regis Resources", "country": "Australia", "status": "Decommissioned", "storage_m3": 700000.0, "dist_km": 0.1, "conf": "high", "unit_name": "ultramafic and minor mafic rocks 74475", "unit_lith": "igneous ultramafic intrusive; meta-igneous ultramafic volcanic" }, "geometry": { "type": "Point", "coordinates": [ 122.316, -27.966 ] } },
{ "type": "Feature", "properties": { "mine": "Moolart Well Gold Mine", "tsf": "GWTSF1", "owner_company": "Regis Resources", "country": "Australia", "status": "Inactive", "storage_m3": 24300000.0, "dist_km": 3.6, "conf": "high", "unit_name": "ultramafic and minor mafic rocks 74475", "unit_lith": "igneous ultramafic intrusive; meta-igneous ultramafic volcanic" }, "geometry": { "type": "Point", "coordinates": [ 122.374, -27.894 ] } },
{ "type": "Feature", "properties": { "mine": "Moolart Well Gold Mine", "tsf": "GWTSF2", "owner_company": "Regis Resources", "country": "Australia", "status": "Inactive", "storage_m3": 5000000.0, "dist_km": 2.8, "conf": "high", "unit_name": "ultramafic and minor mafic rocks 74475", "unit_lith": "igneous ultramafic intrusive; meta-igneous ultramafic volcanic" }, "geometry": { "type": "Point", "coordinates": [ 122.371, -27.904 ] } },
{ "type": "Feature", "properties": { "mine": "Moolart Well Gold Mine", "tsf": "GWTSF3", "owner_company": "Regis Resources", "country": "Australia", "status": "Active", "storage_m3": 0.0, "dist_km": 2.8, "conf": "high", "unit_name": "ultramafic and minor mafic rocks 74475", "unit_lith": "igneous ultramafic intrusive; meta-igneous ultramafic volcanic" }, "geometry": { "type": "Point", "coordinates": [ 122.38, -27.924 ] } },
{ "type": "Feature", "properties": { "mine": "Baneygo", "tsf": "BANTSF1", "owner_company": "Regis Resources", "country": "Australia", "status": "Closed", "storage_m3": 700000.0, "dist_km": 0.1, "conf": "high", "unit_name": "ultramafic and minor mafic rocks 74475", "unit_lith": "igneous ultramafic intrusive; meta-igneous ultramafic volcanic" }, "geometry": { "type": "Point", "coordinates": [ 122.316111, -27.966111 ] } },
{ "type": "Feature", "properties": { "mine": "DeGrussa Copper Mine", "tsf": "DeGrussa Copper Mine TSF", "owner_company": "Sandfire Resources", "country": "Australia", "status": "Active", "storage_m3": 3040000.0, "dist_km": 1.8, "conf": "high", "unit_name": "Narracoota Formation", "unit_lith": "igneous mafic volcanic; igneous ultramafic intrusive" }, "geometry": { "type": "Point", "coordinates": [ 119.315194, -25.536633 ] } },
{ "type": "Feature", "properties": { "mine": "Bannockburn Gold Mine", "tsf": "Bannockburn  - Cells\n1, 2 & 3", "owner_company": "Saracen Mineral", "country": "Australia", "status": "Closed", "storage_m3": 6100000.0, "dist_km": 0.8, "conf": "high", "unit_name": "ultramafic and minor mafic rocks 74475", "unit_lith": "igneous ultramafic intrusive; meta-igneous ultramafic volcanic" }, "geometry": { "type": "Point", "coordinates": [ 120.904381, -28.448564 ] } },
{ "type": "Feature", "properties": { "mine": "Carosue Dam Gold Mine", "tsf": "Carosue Dam - Luvironza In-Pit", "owner_company": "Saracen Mineral", "country": "Australia", "status": "Inactive Care and Maintenance", "storage_m3": 4500000.0, "dist_km": 4.9, "conf": "high", "unit_name": "ultramafic and meta-ultramafic rock 74281", "unit_lith": "meta-igneous ultramafic intrusive" }, "geometry": { "type": "Point", "coordinates": [ 122.344856, -30.107053 ] } },
{ "type": "Feature", "properties": { "mine": "Plutonic Gold Mine", "tsf": "Brooke Pit TSF\n(BPTSF)", "owner_company": "Superior Gold", "country": "Australia", "status": "Rehabilitated", "storage_m3": 118680.0, "dist_km": 0.0, "conf": "high", "unit_name": "metamorphosed ultramafic rocks 74286", "unit_lith": "igneous ultramafic volcanic; meta-igneous ultramafic intrusive" }, "geometry": { "type": "Point", "coordinates": [ 119.508497, -25.324171 ] } },
{ "type": "Feature", "properties": { "mine": "Plutonic Gold Mine", "tsf": "Callop Pit (CalPTSF)", "owner_company": "Superior Gold", "country": "Australia", "status": "Rehabilitated", "storage_m3": 794880.0, "dist_km": 0.3, "conf": "high", "unit_name": "metamorphosed ultramafic rocks 74286", "unit_lith": "igneous ultramafic volcanic; meta-igneous ultramafic intrusive" }, "geometry": { "type": "Point", "coordinates": [ 119.504004, -25.306116 ] } },
{ "type": "Feature", "properties": { "mine": "Plutonic Gold Mine", "tsf": "Catfish Pit (CPTSF)", "owner_company": "Superior Gold", "country": "Australia", "status": "Rehabilitated", "storage_m3": 2497800.0, "dist_km": 0.0, "conf": "high", "unit_name": "metamorphosed ultramafic rocks 74286", "unit_lith": "igneous ultramafic volcanic; meta-igneous ultramafic intrusive" }, "geometry": { "type": "Point", "coordinates": [ 119.495048, -25.317207 ] } },
{ "type": "Feature", "properties": { "mine": "Plutonic Gold Mine", "tsf": "Cut Throat Pit\n(CTPTSF)", "owner_company": "Superior Gold", "country": "Australia", "status": "Rehabilitated", "storage_m3": 725880.0, "dist_km": 0.0, "conf": "high", "unit_name": "metamorphosed ultramafic rocks 74286", "unit_lith": "igneous ultramafic volcanic; meta-igneous ultramafic intrusive" }, "geometry": { "type": "Point", "coordinates": [ 119.508201, -25.322362 ] } },
{ "type": "Feature", "properties": { "mine": "Plutonic Gold Mine", "tsf": "Dogfish Pit (DPTSF)", "owner_company": "Superior Gold", "country": "Australia", "status": "Rehabilitated", "storage_m3": 1462800.0, "dist_km": 0.0, "conf": "high", "unit_name": "metamorphosed ultramafic rocks 74286", "unit_lith": "igneous ultramafic volcanic; meta-igneous ultramafic intrusive" }, "geometry": { "type": "Point", "coordinates": [ 119.500641, -25.315875 ] } },
{ "type": "Feature", "properties": { "mine": "Plutonic Gold Mine", "tsf": "Perch North\nTSF(PNTSF)", "owner_company": "Superior Gold", "country": "Australia", "status": "Rehabilitated", "storage_m3": 369840.0, "dist_km": 0.3, "conf": "high", "unit_name": "metamorphosed ultramafic rocks 74286", "unit_lith": "igneous ultramafic volcanic; meta-igneous ultramafic intrusive" }, "geometry": { "type": "Point", "coordinates": [ 119.487905, -25.319927 ] } },
{ "type": "Feature", "properties": { "mine": "Plutonic Gold Mine", "tsf": "Perch Pit TSF\n(PPTSF)", "owner_company": "Superior Gold", "country": "Australia", "status": "Rehabilitated", "storage_m3": 9660000.0, "dist_km": 0.5, "conf": "high", "unit_name": "metamorphosed ultramafic rocks 74286", "unit_lith": "igneous ultramafic volcanic; meta-igneous ultramafic intrusive" }, "geometry": { "type": "Point", "coordinates": [ 119.487365, -25.322689 ] } },
{ "type": "Feature", "properties": { "mine": "Plutonic Gold Mine", "tsf": "Perch West Pit TSF\n(PWTSF)", "owner_company": "Superior Gold", "country": "Australia", "status": "Rehabilitated", "storage_m3": 1204740.0, "dist_km": 1.0, "conf": "high", "unit_name": "metamorphosed ultramafic rocks 74286", "unit_lith": "igneous ultramafic volcanic; meta-igneous ultramafic intrusive" }, "geometry": { "type": "Point", "coordinates": [ 119.4825, -25.322725 ] } },
{ "type": "Feature", "properties": { "mine": "Plutonic Gold Mine", "tsf": "Piranah Pit TSF\n(PirTSF)", "owner_company": "Superior Gold", "country": "Australia", "status": "Rehabilitated", "storage_m3": 1587000.0, "dist_km": 0.0, "conf": "high", "unit_name": "metamorphosed ultramafic rocks 74286", "unit_lith": "igneous ultramafic volcanic; meta-igneous ultramafic intrusive" }, "geometry": { "type": "Point", "coordinates": [ 119.518343, -25.327306 ] } },
{ "type": "Feature", "properties": { "mine": "Plutonic Gold Mine", "tsf": "Rainbow Pit\n(RPTSF)", "owner_company": "Superior Gold", "country": "Australia", "status": "Rehabilitated", "storage_m3": 3215400.0, "dist_km": 0.0, "conf": "high", "unit_name": "metamorphosed ultramafic rocks 74286", "unit_lith": "igneous ultramafic volcanic; meta-igneous ultramafic intrusive" }, "geometry": { "type": "Point", "coordinates": [ 119.507463, -25.319767 ] } },
{ "type": "Feature", "properties": { "mine": "Plutonic Gold Mine", "tsf": "TSF#1", "owner_company": "Superior Gold", "country": "Australia", "status": "Rehabilitated", "storage_m3": 17250000.0, "dist_km": 0.6, "conf": "high", "unit_name": "metamorphosed ultramafic rocks 74286", "unit_lith": "igneous ultramafic volcanic; meta-igneous ultramafic intrusive" }, "geometry": { "type": "Point", "coordinates": [ 119.456724, -25.31331 ] } },
{ "type": "Feature", "properties": { "mine": "Plutonic Gold Mine", "tsf": "TSF#2", "owner_company": "Superior Gold", "country": "Australia", "status": "Active", "storage_m3": 16284000.0, "dist_km": 1.3, "conf": "high", "unit_name": "metamorphosed ultramafic rocks 74286", "unit_lith": "igneous ultramafic volcanic; meta-igneous ultramafic intrusive" }, "geometry": { "type": "Point", "coordinates": [ 119.462373, -25.309525 ] } },
{ "type": "Feature", "properties": { "mine": "Plutonic Gold Mine", "tsf": "TSF#3", "owner_company": "Superior Gold", "country": "Australia", "status": "Active", "storage_m3": 15180000.0, "dist_km": 0.4, "conf": "high", "unit_name": "metamorphosed ultramafic rocks 74286", "unit_lith": "igneous ultramafic volcanic; meta-igneous ultramafic intrusive" }, "geometry": { "type": "Point", "coordinates": [ 119.455713, -25.314077 ] } },
{ "type": "Feature", "properties": { "mine": "Codemin", "tsf": "Codemin: Dust Reservoir No 1", "owner_company": "Anglo American", "country": "Brazil", "status": "Active", "storage_m3": 487891.0, "dist_km": 1.0, "conf": "high", "unit_name": "Unidade Niquelândia - Zona Ultramáfica", "unit_lith": "Cromitito, Dunito, Ortopiroxenito, Websterito" }, "geometry": { "type": "Point", "coordinates": [ -48.341944, -14.149444 ] } },
{ "type": "Feature", "properties": { "mine": "Codemin", "tsf": "Codemin: Dust Reservoir No 3", "owner_company": "Anglo American", "country": "Brazil", "status": "Active", "storage_m3": 128596.0, "dist_km": 0.9, "conf": "high", "unit_name": "Unidade Niquelândia - Zona Ultramáfica", "unit_lith": "Cromitito, Dunito, Ortopiroxenito, Websterito" }, "geometry": { "type": "Point", "coordinates": [ -48.341944, -14.147222 ] } },
{ "type": "Feature", "properties": { "mine": "Codemin", "tsf": "Codemin: Dust Reservoir No 3", "owner_company": "Anglo American", "country": "Brazil", "status": "Active", "storage_m3": 43445.0, "dist_km": 0.9, "conf": "high", "unit_name": "Unidade Niquelândia - Zona Ultramáfica", "unit_lith": "Cromitito, Dunito, Ortopiroxenito, Websterito" }, "geometry": { "type": "Point", "coordinates": [ -48.343333, -14.153611 ] } },
{ "type": "Feature", "properties": { "mine": "Codemin", "tsf": "Codemin: Slag Pile No. 1", "owner_company": "Anglo American", "country": "Brazil", "status": "Inactive", "storage_m3": 3500000.0, "dist_km": 0.6, "conf": "high", "unit_name": "Unidade Niquelândia - Zona Ultramáfica", "unit_lith": "Cromitito, Dunito, Ortopiroxenito, Websterito" }, "geometry": { "type": "Point", "coordinates": [ -48.345556, -14.151111 ] } },
{ "type": "Feature", "properties": { "mine": "Codemin", "tsf": "Codemin: Slag Pile No. 2", "owner_company": "Anglo American", "country": "Brazil", "status": "Active", "storage_m3": 3800000.0, "dist_km": 0.9, "conf": "high", "unit_name": "Unidade Niquelândia - Zona Ultramáfica", "unit_lith": "Cromitito, Dunito, Ortopiroxenito, Websterito" }, "geometry": { "type": "Point", "coordinates": [ -48.343333, -14.157222 ] } },
{ "type": "Feature", "properties": { "mine": "Cuiaba", "tsf": "Cuiaba TSF", "owner_company": "AngloGold Ashanti", "country": "Brazil", "status": "Active", "storage_m3": 7610000.0, "dist_km": 1.2, "conf": "high", "unit_name": "Unidade Nova Lima, metamáfica-ultramáfica", "unit_lith": "Metagabro, Serpentinito, Xisto" }, "geometry": { "type": "Point", "coordinates": [ -43.726694, -19.869003 ] } },
{ "type": "Feature", "properties": { "mine": "Cuiaba", "tsf": "Open Pit Backfill", "owner_company": "AngloGold Ashanti", "country": "Brazil", "status": "Active", "storage_m3": 1400000.0, "dist_km": 0.0, "conf": "high", "unit_name": "Unidade Nova Lima, metamáfica-ultramáfica", "unit_lith": "Metagabro, Serpentinito, Xisto" }, "geometry": { "type": "Point", "coordinates": [ -43.746994, -19.864328 ] } },
{ "type": "Feature", "properties": { "mine": "Queiroz", "tsf": "Calcinados", "owner_company": "AngloGold Ashanti", "country": "Brazil", "status": "Active", "storage_m3": 2970000.0, "dist_km": 0.0, "conf": "high", "unit_name": "Unidade Nova Lima, metamáfica-ultramáfica", "unit_lith": "Metagabro, Serpentinito, Xisto" }, "geometry": { "type": "Point", "coordinates": [ -43.839564, -19.961906 ] } },
{ "type": "Feature", "properties": { "mine": "Queiroz", "tsf": "Cocoruto", "owner_company": "AngloGold Ashanti", "country": "Brazil", "status": "Active", "storage_m3": 4240000.0, "dist_km": 0.0, "conf": "high", "unit_name": "Unidade Nova Lima, metamáfica-ultramáfica", "unit_lith": "Metagabro, Serpentinito, Xisto" }, "geometry": { "type": "Point", "coordinates": [ -43.831208, -19.974481 ] } },
{ "type": "Feature", "properties": { "mine": "Queiroz", "tsf": "Rapaunha", "owner_company": "AngloGold Ashanti", "country": "Brazil", "status": "Active", "storage_m3": 13700000.0, "dist_km": 0.0, "conf": "high", "unit_name": "Unidade Nova Lima, metamáfica-ultramáfica", "unit_lith": "Metagabro, Serpentinito, Xisto" }, "geometry": { "type": "Point", "coordinates": [ -43.84335, -19.965033 ] } },
{ "type": "Feature", "properties": { "mine": "Mina Serra Grande", "tsf": "MSG TSF", "owner_company": "AngloGold Ashanti", "country": "Brazil", "status": "Active", "storage_m3": 14100000.0, "dist_km": 4.9, "conf": "high", "unit_name": "Corpo Corpos de rochas metamáfico - metaultramáfica", "unit_lith": "Diabásio, Piroxenito, Serpentinito, Talco xisto, Xisto" }, "geometry": { "type": "Point", "coordinates": [ -49.957942, -14.561789 ] } },
{ "type": "Feature", "properties": { "mine": "MCSA Mining Complex", "tsf": "Historic Tailings Dam", "owner_company": "ERO COPPER", "country": "Brazil", "status": "Rehabilitated", "storage_m3": 45400000.0, "dist_km": 4.0, "conf": "high", "unit_name": "Corpo Máfico-Ultramáficos do Vale do Curaçá", "unit_lith": "Anfibolito, Metadiorito, Metagabro, Metagabronorito, Metanorito, Metaperidotito, Metapiroxenito, Serpentinito" }, "geometry": { "type": "Point", "coordinates": [ -39.826583, -9.851139 ] } },
{ "type": "Feature", "properties": { "mine": "MCSA Mining Complex", "tsf": "R22 Open Pit", "owner_company": "ERO COPPER", "country": "Brazil", "status": "Closed", "storage_m3": 2316736.0, "dist_km": 1.8, "conf": "high", "unit_name": "Corpo Máfico-Ultramáficos do Vale do Curaçá", "unit_lith": "Anfibolito, Metadiorito, Metagabro, Metagabronorito, Metanorito, Metaperidotito, Metapiroxenito, Serpentinito" }, "geometry": { "type": "Point", "coordinates": [ -39.871314, -9.852937 ] } },
{ "type": "Feature", "properties": { "mine": "MCSA Mining Complex", "tsf": "South Pilar Open Pit", "owner_company": "ERO COPPER", "country": "Brazil", "status": "Active", "storage_m3": 670827.0, "dist_km": 0.5, "conf": "high", "unit_name": "Corpo Máfico-Ultramáficos do Vale do Curaçá", "unit_lith": "Anfibolito, Metadiorito, Metagabro, Metagabronorito, Metanorito, Metaperidotito, Metapiroxenito, Serpentinito" }, "geometry": { "type": "Point", "coordinates": [ -39.870499, -9.874717 ] } },
{ "type": "Feature", "properties": { "mine": "MCSA Mining Complex", "tsf": "Tailings Co-Disposal", "owner_company": "ERO COPPER", "country": "Brazil", "status": "Active", "storage_m3": 5588893.0, "dist_km": 1.4, "conf": "high", "unit_name": "Corpo Máfico-Ultramáficos do Vale do Curaçá", "unit_lith": "Anfibolito, Metadiorito, Metagabro, Metagabronorito, Metanorito, Metaperidotito, Metapiroxenito, Serpentinito" }, "geometry": { "type": "Point", "coordinates": [ -39.865111, -9.855353 ] } },
{ "type": "Feature", "properties": { "mine": "Araxa", "tsf": "Araxa B1/B4", "owner_company": "The Mosaic Company", "country": "Brazil", "status": "Inactive Care and Maintenance", "storage_m3": 24000000.0, "dist_km": 4.1, "conf": "high", "unit_name": "Complexo alcalino Araxá", "unit_lith": "Carbonatito, Dunito, Glimmerito, Peridotito, Piroxenito" }, "geometry": { "type": "Point", "coordinates": [ -46.996814, -19.633894 ] } },
{ "type": "Feature", "properties": { "mine": "Araxa", "tsf": "Araxá B2", "owner_company": "The Mosaic Company", "country": "Brazil", "status": "Inactive Care and Maintenance", "storage_m3": 600000.0, "dist_km": 1.8, "conf": "high", "unit_name": "Complexo alcalino Araxá", "unit_lith": "Carbonatito, Dunito, Glimmerito, Peridotito, Piroxenito" }, "geometry": { "type": "Point", "coordinates": [ -46.974292, -19.641597 ] } },
{ "type": "Feature", "properties": { "mine": "Tapira", "tsf": "Tapira BL-1", "owner_company": "The Mosaic Company", "country": "Brazil", "status": "Inactive Care and Maintenance", "storage_m3": 170000000.0, "dist_km": 0.0, "conf": "high", "unit_name": "Complexo alcalino Tapira", "unit_lith": "Carbonatito, Dunito, Glimmerito, Peridotito, Piroxenito" }, "geometry": { "type": "Point", "coordinates": [ -46.865617, -19.842606 ] } },
{ "type": "Feature", "properties": { "mine": "Tapira", "tsf": "Tapira BR", "owner_company": "The Mosaic Company", "country": "Brazil", "status": "Active", "storage_m3": 80000000.0, "dist_km": 0.0, "conf": "high", "unit_name": "Complexo alcalino Tapira", "unit_lith": "Carbonatito, Dunito, Glimmerito, Peridotito, Piroxenito" }, "geometry": { "type": "Point", "coordinates": [ -46.833661, -19.838831 ] } },
{ "type": "Feature", "properties": { "mine": "Aboboras", "tsf": "Fernandinho", "owner_company": "Vale", "country": "Brazil", "status": "Inactive Care and Maintenance", "storage_m3": 1020000.0, "dist_km": 4.7, "conf": "high", "unit_name": "Unidade Nova Lima, metamáfica-ultramáfica", "unit_lith": "Metagabro, Serpentinito, Xisto" }, "geometry": { "type": "Point", "coordinates": [ -43.859515, -20.18332 ] } },
{ "type": "Feature", "properties": { "mine": "Aboboras", "tsf": "Vargem Grande", "owner_company": "Vale", "country": "Brazil", "status": "Inactive Care and Maintenance", "storage_m3": 9500000.0, "dist_km": 4.7, "conf": "high", "unit_name": "Unidade Nova Lima, metamáfica-ultramáfica", "unit_lith": "Metagabro, Serpentinito, Xisto" }, "geometry": { "type": "Point", "coordinates": [ -43.867009, -20.181878 ] } },
{ "type": "Feature", "properties": { "mine": "Agua Limpa", "tsf": "5 - MAC System", "owner_company": "Vale", "country": "Brazil", "status": "Inactive Care and Maintenance", "storage_m3": 13720000.0, "dist_km": 0.4, "conf": "high", "unit_name": "Unidade Nova Lima, metamáfica-ultramáfica", "unit_lith": "Metagabro, Serpentinito, Xisto" }, "geometry": { "type": "Point", "coordinates": [ -43.893003, -19.977087 ] } },
{ "type": "Feature", "properties": { "mine": "Brucutu", "tsf": "Sul (Córrego do Canal)", "owner_company": "Vale", "country": "Brazil", "status": "Active", "storage_m3": 53740000.0, "dist_km": 3.5, "conf": "high", "unit_name": "Unidade Nova Lima, metamáfica-ultramáfica", "unit_lith": "Metagabro, Serpentinito, Xisto" }, "geometry": { "type": "Point", "coordinates": [ -43.38568, -19.883975 ] } },
{ "type": "Feature", "properties": { "mine": "Caue", "tsf": "Pontal System", "owner_company": "Vale", "country": "Brazil", "status": "Inactive Care and Maintenance", "storage_m3": 226960000.0, "dist_km": 4.5, "conf": "high", "unit_name": "Unidade Nova Lima, metamáfica-ultramáfica", "unit_lith": "Metagabro, Serpentinito, Xisto" }, "geometry": { "type": "Point", "coordinates": [ -43.182944, -19.625463 ] } },
{ "type": "Feature", "properties": { "mine": "Conceicao", "tsf": "Conceição", "owner_company": "Vale", "country": "Brazil", "status": "Active", "storage_m3": 38060000.0, "dist_km": 0.0, "conf": "high", "unit_name": "Unidade Nova Lima, metamáfica-ultramáfica", "unit_lith": "Metagabro, Serpentinito, Xisto" }, "geometry": { "type": "Point", "coordinates": [ -43.274146, -19.647591 ] } },
{ "type": "Feature", "properties": { "mine": "Conceicao", "tsf": "Itabiruçu", "owner_company": "Vale", "country": "Brazil", "status": "Active", "storage_m3": 131700000.0, "dist_km": 0.0, "conf": "high", "unit_name": "Unidade Nova Lima, metamáfica-ultramáfica", "unit_lith": "Metagabro, Serpentinito, Xisto" }, "geometry": { "type": "Point", "coordinates": [ -43.286226, -19.685378 ] } },
{ "type": "Feature", "properties": { "mine": "Conceicao", "tsf": "Rio do Peixe System", "owner_company": "Vale", "country": "Brazil", "status": "Active", "storage_m3": 13800000.0, "dist_km": 0.0, "conf": "high", "unit_name": "Unidade Nova Lima, metamáfica-ultramáfica", "unit_lith": "Metagabro, Serpentinito, Xisto" }, "geometry": { "type": "Point", "coordinates": [ -43.23642, -19.674226 ] } },
{ "type": "Feature", "properties": { "mine": "Corrego do Meio", "tsf": "Galego", "owner_company": "Vale", "country": "Brazil", "status": "Inactive Care and Maintenance", "storage_m3": 1260000.0, "dist_km": 2.2, "conf": "high", "unit_name": "Unidade Nova Lima, metamáfica-ultramáfica", "unit_lith": "Metagabro, Serpentinito, Xisto" }, "geometry": { "type": "Point", "coordinates": [ -43.804528, -19.857202 ] } },
{ "type": "Feature", "properties": { "mine": "Gongo Soco", "tsf": "Sul Superior", "owner_company": "Vale", "country": "Brazil", "status": "Inactive Care and Maintenance", "storage_m3": 6020000.0, "dist_km": 2.6, "conf": "high", "unit_name": "Unidade Nova Lima, metamáfica-ultramáfica", "unit_lith": "Metagabro, Serpentinito, Xisto" }, "geometry": { "type": "Point", "coordinates": [ -43.596867, -19.970176 ] } },
{ "type": "Feature", "properties": { "mine": "Mar Azul", "tsf": "B3/B5", "owner_company": "Vale", "country": "Brazil", "status": "Inactive Care and Maintenance", "storage_m3": 2700000.0, "dist_km": 0.8, "conf": "high", "unit_name": "Unidade Nova Lima, metamáfica-ultramáfica", "unit_lith": "Metagabro, Serpentinito, Xisto" }, "geometry": { "type": "Point", "coordinates": [ -43.954696, -20.049122 ] } },
{ "type": "Feature", "properties": { "mine": "Mutuca", "tsf": "5 - Mutuca", "owner_company": "Vale", "country": "Brazil", "status": "Active", "storage_m3": 11000000.0, "dist_km": 0.0, "conf": "high", "unit_name": "Unidade Nova Lima, metamáfica-ultramáfica", "unit_lith": "Metagabro, Serpentinito, Xisto" }, "geometry": { "type": "Point", "coordinates": [ -43.942562, -20.026226 ] } },
{ "type": "Feature", "properties": { "mine": "Jacobina", "tsf": "B1 TSF", "owner_company": "Yamana Gold", "country": "Brazil", "status": "Closed", "storage_m3": 10000000.0, "dist_km": 1.1, "conf": "high", "unit_name": "Serra da Jacobina", "unit_lith": "Metaperidotito, Metapiroxenito, Serpentinito, Talco xisto" }, "geometry": { "type": "Point", "coordinates": [ -40.523889, -11.244167 ] } },
{ "type": "Feature", "properties": { "mine": "Jacobina", "tsf": "B2 TSF", "owner_company": "Yamana Gold", "country": "Brazil", "status": "Active", "storage_m3": 7500000.0, "dist_km": 1.7, "conf": "high", "unit_name": "Serra da Jacobina", "unit_lith": "Metaperidotito, Metapiroxenito, Serpentinito, Talco xisto" }, "geometry": { "type": "Point", "coordinates": [ -40.528889, -11.234167 ] } },
{ "type": "Feature", "properties": { "mine": "Goldex", "tsf": "South TSF", "owner_company": "Agnico Eagle Mines", "country": "Canada", "status": "Active", "storage_m3": 1664000.0, "dist_km": 1.5, "conf": "high", "unit_name": null, "unit_lith": "Volcanites et intrusions ultramafiques et mafiques" }, "geometry": { "type": "Point", "coordinates": [ -77.841978, 48.054342 ] } },
{ "type": "Feature", "properties": { "mine": "Joutel", "tsf": "TMF South", "owner_company": "Agnico Eagle Mines", "country": "Canada", "status": "Inactive", "storage_m3": 2200000.0, "dist_km": 0.8, "conf": "high", "unit_name": null, "unit_lith": "Péridotite, serpentinite, dunite, pyroxénite, coulée mafique et ultramafique" }, "geometry": { "type": "Point", "coordinates": [ -78.224038, 49.291356 ] } },
{ "type": "Feature", "properties": { "mine": "Laronde", "tsf": "Extension A4", "owner_company": "Agnico Eagle Mines", "country": "Canada", "status": "Active", "storage_m3": 1500000.0, "dist_km": 1.9, "conf": "high", "unit_name": null, "unit_lith": "Volcanites et intrusions ultramafiques" }, "geometry": { "type": "Point", "coordinates": [ -78.400641, 48.254847 ] } },
{ "type": "Feature", "properties": { "mine": "Laronde", "tsf": "Principal TSF", "owner_company": "Agnico Eagle Mines", "country": "Canada", "status": "Active", "storage_m3": 29923000.0, "dist_km": 1.6, "conf": "high", "unit_name": null, "unit_lith": "Volcanites et intrusions ultramafiques" }, "geometry": { "type": "Point", "coordinates": [ -78.417616, 48.257872 ] } },
{ "type": "Feature", "properties": { "mine": "Meadowbank", "tsf": "In pit", "owner_company": "Agnico Eagle Mines", "country": "Canada", "status": "Active", "storage_m3": 850000.0, "dist_km": 0.1, "conf": "high", "unit_name": "Committee Bay and Woodburn Lake Groups", "unit_lith": null }, "geometry": { "type": "Point", "coordinates": [ -96.048962, 65.019033 ] } },
{ "type": "Feature", "properties": { "mine": "Meadowbank", "tsf": "North Cell", "owner_company": "Agnico Eagle Mines", "country": "Canada", "status": "Active", "storage_m3": 14400000.0, "dist_km": 0.0, "conf": "high", "unit_name": "Committee Bay and Woodburn Lake Groups", "unit_lith": null }, "geometry": { "type": "Point", "coordinates": [ -96.072833, 65.037738 ] } },
{ "type": "Feature", "properties": { "mine": "Meadowbank", "tsf": "South Cell", "owner_company": "Agnico Eagle Mines", "country": "Canada", "status": "Active", "storage_m3": 10420000.0, "dist_km": 0.6, "conf": "high", "unit_name": "Committee Bay and Woodburn Lake Groups", "unit_lith": null }, "geometry": { "type": "Point", "coordinates": [ -96.064086, 65.025917 ] } },
{ "type": "Feature", "properties": { "mine": "Canadian Malartic", "tsf": "Canadian Malartic TSF", "owner_company": "Agnico Eagle Mines", "country": "Canada", "status": "Active", "storage_m3": 96000000.0, "dist_km": 1.6, "conf": "high", "unit_name": "V4", "unit_lith": "Volcanites ultramafiques" }, "geometry": { "type": "Point", "coordinates": [ -78.091518, 48.112562 ] } },
{ "type": "Feature", "properties": { "mine": "Bousquet ", "tsf": "Bousquet LTA", "owner_company": "Barrick Gold Corporation", "country": "Canada", "status": "Closed", "storage_m3": 14000000.0, "dist_km": 0.2, "conf": "high", "unit_name": null, "unit_lith": "Volcanites et intrusions ultramafiques et mafiques" }, "geometry": { "type": "Point", "coordinates": [ -78.000949, 48.106408 ] } },
{ "type": "Feature", "properties": { "mine": "Cadillac Molybdenite", "tsf": "Tailings Stack", "owner_company": "Barrick Gold Corporation", "country": "Canada", "status": "Closed", "storage_m3": 1300000.0, "dist_km": 0.9, "conf": "high", "unit_name": null, "unit_lith": "Komatiite, basalte magnésien et basalte" }, "geometry": { "type": "Point", "coordinates": [ -78.382253, 48.315221 ] } },
{ "type": "Feature", "properties": { "mine": null, "tsf": "Lac Shortt TSF", "owner_company": "First Quantum Minerals", "country": "Canada", "status": "Closed site", "storage_m3": 963000.0, "dist_km": 1.5, "conf": "high", "unit_name": null, "unit_lith": "Pyroxénite, péridotite" }, "geometry": { "type": "Point", "coordinates": [ -75.840833, 49.614444 ] } },
{ "type": "Feature", "properties": { "mine": "Boss Mountain", "tsf": "Boss Tailings Storage Facility (Main Dam)", "owner_company": "Glencore", "country": "Canada", "status": "Closed", "storage_m3": 5000000.0, "dist_km": 3.6, "conf": "high", "unit_name": "Polaris ultramafic suite", "unit_lith": "mafic to ultramafic rocks" }, "geometry": { "type": "Point", "coordinates": [ -120.869444, 52.093056 ] } },
{ "type": "Feature", "properties": { "mine": "Boss Mountain", "tsf": "Boss Tailings Storage Facility North Tailings Berm", "owner_company": "Glencore", "country": "Canada", "status": "Closed", "storage_m3": 5000000.0, "dist_km": 3.6, "conf": "high", "unit_name": "Polaris ultramafic suite", "unit_lith": "mafic to ultramafic rocks" }, "geometry": { "type": "Point", "coordinates": [ -120.869444, 52.093056 ] } },
{ "type": "Feature", "properties": { "mine": "Raglan Mine", "tsf": "Raglan (Tailings Dry Stack)", "owner_company": "Glencore", "country": "Canada", "status": "Active", "storage_m3": 11000000.0, "dist_km": 0.1, "conf": "high", "unit_name": null, "unit_lith": "Péridotite" }, "geometry": { "type": "Point", "coordinates": [ -73.678414, 61.687425 ] } },
{ "type": "Feature", "properties": { "mine": "Louvicourt", "tsf": "Tailings Storage Facility (Dam 2) (7)", "owner_company": "Glencore", "country": "Canada", "status": "Closed", "storage_m3": 5990000.0, "dist_km": 3.5, "conf": "high", "unit_name": "I4", "unit_lith": "Roche intrusive ultramafique" }, "geometry": { "type": "Point", "coordinates": [ -77.601389, 48.1325 ] } },
{ "type": "Feature", "properties": { "mine": "Casa Berardi", "tsf": "Casa Berardi Cell #1", "owner_company": "Hecla Mining Company", "country": "Canada", "status": "Inactive", "storage_m3": null, "dist_km": 1.6, "conf": "high", "unit_name": null, "unit_lith": "Volcanites et roches intrusives ultramafiques" }, "geometry": { "type": "Point", "coordinates": [ -79.232417, 49.560333 ] } },
{ "type": "Feature", "properties": { "mine": "Casa Berardi", "tsf": "Casa Berardi Cell #2", "owner_company": "Hecla Mining Company", "country": "Canada", "status": "Closure", "storage_m3": null, "dist_km": 1.7, "conf": "high", "unit_name": null, "unit_lith": "Volcanites et roches intrusives ultramafiques" }, "geometry": { "type": "Point", "coordinates": [ -79.223056, 49.561333 ] } },
{ "type": "Feature", "properties": { "mine": "Casa Berardi", "tsf": "Casa Berardi Cell #3", "owner_company": "Hecla Mining Company", "country": "Canada", "status": "Inactive", "storage_m3": null, "dist_km": 1.6, "conf": "high", "unit_name": null, "unit_lith": "Volcanites et roches intrusives ultramafiques" }, "geometry": { "type": "Point", "coordinates": [ -79.235528, 49.560389 ] } },
{ "type": "Feature", "properties": { "mine": "Casa Berardi", "tsf": "Casa Berardi Cell 4", "owner_company": "Hecla Mining Company", "country": "Canada", "status": "Active", "storage_m3": 5000000.0, "dist_km": 1.2, "conf": "high", "unit_name": null, "unit_lith": "Volcanites et roches intrusives ultramafiques" }, "geometry": { "type": "Point", "coordinates": [ -79.240528, 49.555972 ] } },
{ "type": "Feature", "properties": { "mine": "Westwood Gold Mine", "tsf": "IAMGOLD WESTWOOD GOLD MINE/ DOYON", "owner_company": "IAMGOLD Corp", "country": "Canada", "status": "Active", "storage_m3": 10945990.0, "dist_km": 2.7, "conf": "high", "unit_name": null, "unit_lith": "Komatiite, basalte magnésien, intrusion ultramafique et volcanoclastite mafique" }, "geometry": { "type": "Point", "coordinates": [ -78.550097, 48.272794 ] } },
{ "type": "Feature", "properties": { "mine": "YVAN VEZINA", "tsf": "YVAN VEZINA", "owner_company": "IAMGOLD Corp", "country": "Canada", "status": "Closed", "storage_m3": 2500000.0, "dist_km": 2.0, "conf": "high", "unit_name": null, "unit_lith": "Komatiite et filon-couche ultramafique, basalte et volcanoclastite mafique" }, "geometry": { "type": "Point", "coordinates": [ -78.924386, 48.478839 ] } },
{ "type": "Feature", "properties": { "mine": "Louvicourt", "tsf": "Teck", "owner_company": "Teck", "country": "Canada", "status": "Inactive", "storage_m3": 5992050.0, "dist_km": 3.5, "conf": "high", "unit_name": "I4", "unit_lith": "Roche intrusive ultramafique" }, "geometry": { "type": "Point", "coordinates": [ -77.601511, 48.132622 ] } },
{ "type": "Feature", "properties": { "mine": "Pinchi ", "tsf": "Pinchi Tailings Storage Facility", "owner_company": "Teck", "country": "Canada", "status": "Inactive", "storage_m3": 1000000.0, "dist_km": 0.5, "conf": "high", "unit_name": "Cache Creek Complex - Trembleur Ultramafite Unit", "unit_lith": "ultramafic igneous rocks" }, "geometry": { "type": "Point", "coordinates": [ -124.426425, 54.627353 ] } },
{ "type": "Feature", "properties": { "mine": "Canadian Malartic", "tsf": "Canadian Malartic TSF", "owner_company": "Yamana Gold", "country": "Canada", "status": "Active", "storage_m3": 96000000.0, "dist_km": 2.1, "conf": "high", "unit_name": null, "unit_lith": "Schiste et roches volcaniques ultramafiques" }, "geometry": { "type": "Point", "coordinates": [ -78.103611, 48.111389 ] } },
{ "type": "Feature", "properties": { "mine": "MMG Yuletide", "tsf": "MMG Yuletide\nin pit", "owner_company": "Ramelius Resources", "country": "China", "status": "Closed", "storage_m3": 470000.0, "dist_km": 0.0, "conf": "high", "unit_name": "ultramafic rocks 74480", "unit_lith": "igneous ultramafic intrusive; igneous ultramafic volcanic" }, "geometry": { "type": "Point", "coordinates": [ 117.824481, -27.983346 ] } },
{ "type": "Feature", "properties": { "mine": "EMO", "tsf": "EMO TSF", "owner_company": "Ramelius Resources", "country": "China", "status": "Active", "storage_m3": 22000000.0, "dist_km": 0.9, "conf": "high", "unit_name": "undivided metamorphosed igneous and sedimentary rocks 74367", "unit_lith": "igneous mafic volcanic; meta-igneous ultramafic" }, "geometry": { "type": "Point", "coordinates": [ 118.688877, -31.273484 ] } },
{ "type": "Feature", "properties": { "mine": "Quartz de Dordogne", "tsf": "TSF #1", "owner_company": "Imerys", "country": "France", "status": "Active", "storage_m3": 700000.0, "dist_km": 3.1, "conf": "high", "unit_name": null, "unit_lith": "peridotite [5.0%..50.0%]; serpentinite [5.0%..50.0%]; ultramafic igneous rock [50.0%..95.0%]" }, "geometry": { "type": "Point", "coordinates": [ 0.833449, 45.400357 ] } },
{ "type": "Feature", "properties": { "mine": "Quartz de Dordogne", "tsf": "TSF #2", "owner_company": "Imerys", "country": "France", "status": "Active", "storage_m3": 300000.0, "dist_km": 3.3, "conf": "high", "unit_name": null, "unit_lith": "peridotite [5.0%..50.0%]; serpentinite [5.0%..50.0%]; ultramafic igneous rock [50.0%..95.0%]" }, "geometry": { "type": "Point", "coordinates": [ 0.830786, 45.399627 ] } },
{ "type": "Feature", "properties": { "mine": "Quartz de Dordogne", "tsf": "TSF #3", "owner_company": "Imerys", "country": "France", "status": "Active", "storage_m3": 250000.0, "dist_km": 3.5, "conf": "high", "unit_name": null, "unit_lith": "peridotite [5.0%..50.0%]; serpentinite [5.0%..50.0%]; ultramafic igneous rock [50.0%..95.0%]" }, "geometry": { "type": "Point", "coordinates": [ 0.830838, 45.397262 ] } },
{ "type": "Feature", "properties": { "mine": "Noumea", "tsf": "KO2 Berm", "owner_company": "Vale", "country": "New Caledonia", "status": "Active", "storage_m3": 22000000.0, "dist_km": 0.0, "conf": "high", "unit_name": "Formations d'altération", "unit_lith": "Latérites épaisses sur péridotites" }, "geometry": { "type": "Point", "coordinates": [ 166.918417, -22.308528 ] } },
{ "type": "Feature", "properties": { "mine": "ANBP", "tsf": "ANBP-2 TSF (Multiple Dams)", "owner_company": "PHOSAGRO", "country": "Russia", "status": "Active", "storage_m3": 481540000.0, "dist_km": 2.6, "conf": "medium", "unit_name": "Devonian plutonic", "unit_lith": "plutonic ultramafic group" }, "geometry": { "type": "Point", "coordinates": [ 33.206667, 67.659444 ] } },
{ "type": "Feature", "properties": { "mine": "ANBP", "tsf": "ANBP-3 TSF (Multiple Dams)", "owner_company": "PHOSAGRO", "country": "Russia", "status": "Active", "storage_m3": 252190000.0, "dist_km": 3.2, "conf": "medium", "unit_name": "Devonian plutonic", "unit_lith": "plutonic ultramafic group" }, "geometry": { "type": "Point", "coordinates": [ 33.594444, 67.538056 ] } },
{ "type": "Feature", "properties": { "mine": "Modikwa", "tsf": "Modikwa Tailings Storage Facility", "owner_company": "African Rainbow Minerals", "country": "South Africa", "status": "Active", "storage_m3": 22000000.0, "dist_km": 0.2, "conf": "medium", "unit_name": "USGS Africa lithology", "unit_lith": "Ultramafic (USGS Africa surficial lithology, class 8)" }, "geometry": { "type": "Point", "coordinates": [ 30.1519, -24.651158 ] } },
{ "type": "Feature", "properties": { "mine": "Two Rivers", "tsf": "Two Rivers Tailings Storage Facility", "owner_company": "African Rainbow Minerals", "country": "South Africa", "status": "Active", "storage_m3": 21200000.0, "dist_km": 0.0, "conf": "medium", "unit_name": "USGS Africa lithology", "unit_lith": "Ultramafic (USGS Africa surficial lithology, class 8)" }, "geometry": { "type": "Point", "coordinates": [ 30.122753, -24.921847 ] } },
{ "type": "Feature", "properties": { "mine": "Bokoni JV", "tsf": "Consolidated Dam", "owner_company": "Anglo American Platinum", "country": "South Africa", "status": "Inactive", "storage_m3": 7070000.0, "dist_km": 0.7, "conf": "medium", "unit_name": "USGS Africa lithology", "unit_lith": "Ultramafic (USGS Africa surficial lithology, class 8)" }, "geometry": { "type": "Point", "coordinates": [ 29.87809, -24.29644 ] } },
{ "type": "Feature", "properties": { "mine": "Bokoni JV", "tsf": "Dam 6", "owner_company": "Anglo American Platinum", "country": "South Africa", "status": "Inactive", "storage_m3": 7170000.0, "dist_km": 0.7, "conf": "medium", "unit_name": "USGS Africa lithology", "unit_lith": "Ultramafic (USGS Africa surficial lithology, class 8)" }, "geometry": { "type": "Point", "coordinates": [ 29.88824, -24.30033 ] } },
{ "type": "Feature", "properties": { "mine": "Modikwa JV", "tsf": "Modikwa", "owner_company": "Anglo American Platinum", "country": "South Africa", "status": "Active", "storage_m3": 22000000.0, "dist_km": 0.2, "conf": "medium", "unit_name": "USGS Africa lithology", "unit_lith": "Ultramafic (USGS Africa surficial lithology, class 8)" }, "geometry": { "type": "Point", "coordinates": [ 30.1519, -24.651158 ] } },
{ "type": "Feature", "properties": { "mine": "Mototolo", "tsf": "Helena Dam 1", "owner_company": "Anglo American Platinum", "country": "South Africa", "status": "Active", "storage_m3": 14000000.0, "dist_km": 0.0, "conf": "medium", "unit_name": "USGS Africa lithology", "unit_lith": "Ultramafic (USGS Africa surficial lithology, class 8)" }, "geometry": { "type": "Point", "coordinates": [ 30.11316, -25.01605 ] } },
{ "type": "Feature", "properties": { "mine": "Mototolo", "tsf": "Mareesburg", "owner_company": "Anglo American Platinum", "country": "South Africa", "status": "Active", "storage_m3": 76000.0, "dist_km": 0.0, "conf": "medium", "unit_name": "USGS Africa lithology", "unit_lith": "Ultramafic (USGS Africa surficial lithology, class 8)" }, "geometry": { "type": "Point", "coordinates": [ 30.14734, -25.01143 ] } },
{ "type": "Feature", "properties": { "mine": "Kroondal JV (PSA1)", "tsf": "K1", "owner_company": "Anglo American Platinum", "country": "South Africa", "status": "Active", "storage_m3": 5300000.0, "dist_km": 3.2, "conf": "medium", "unit_name": "USGS Africa lithology", "unit_lith": "Ultramafic (USGS Africa surficial lithology, class 8)" }, "geometry": { "type": "Point", "coordinates": [ 27.3296, -25.71306 ] } },
{ "type": "Feature", "properties": { "mine": "Kroondal JV (PSA1)", "tsf": "K150", "owner_company": "Anglo American Platinum", "country": "South Africa", "status": "Active", "storage_m3": 10100000.0, "dist_km": 3.6, "conf": "medium", "unit_name": "USGS Africa lithology", "unit_lith": "Ultramafic (USGS Africa surficial lithology, class 8)" }, "geometry": { "type": "Point", "coordinates": [ 27.35163, -25.7164 ] } },
{ "type": "Feature", "properties": { "mine": "Kroondal JV (PSA1)", "tsf": "K2", "owner_company": "Anglo American Platinum", "country": "South Africa", "status": "Active", "storage_m3": 16000000.0, "dist_km": 4.1, "conf": "medium", "unit_name": "USGS Africa lithology", "unit_lith": "Ultramafic (USGS Africa surficial lithology, class 8)" }, "geometry": { "type": "Point", "coordinates": [ 27.3604, -25.71688 ] } },
{ "type": "Feature", "properties": { "mine": "Kroondal JV (PSA2)", "tsf": "Marikana", "owner_company": "Anglo American Platinum", "country": "South Africa", "status": "Active", "storage_m3": 11900000.0, "dist_km": 1.4, "conf": "medium", "unit_name": "USGS Africa lithology", "unit_lith": "Ultramafic (USGS Africa surficial lithology, class 8)" }, "geometry": { "type": "Point", "coordinates": [ 27.40939, -25.732519 ] } },
{ "type": "Feature", "properties": { "mine": "Boshoek Smelter Complex", "tsf": "Boshoek Smelter (Slimes)", "owner_company": "Glencore", "country": "South Africa", "status": "Active", "storage_m3": 30000.0, "dist_km": 1.8, "conf": "medium", "unit_name": "USGS Africa lithology", "unit_lith": "Ultramafic (USGS Africa surficial lithology, class 8)" }, "geometry": { "type": "Point", "coordinates": [ 27.115278, -25.486667 ] } },
{ "type": "Feature", "properties": { "mine": "Helena Chromium Mine", "tsf": "Helena TSF (Tailings Dam)", "owner_company": "Glencore", "country": "South Africa", "status": "Inactive", "storage_m3": 120000.0, "dist_km": 0.0, "conf": "medium", "unit_name": "USGS Africa lithology", "unit_lith": "Ultramafic (USGS Africa surficial lithology, class 8)" }, "geometry": { "type": "Point", "coordinates": [ 30.119722, -25.000278 ] } },
{ "type": "Feature", "properties": { "mine": "Lion Smelter", "tsf": "Lion Smelter (Cell 1)", "owner_company": "Glencore", "country": "South Africa", "status": "Active", "storage_m3": 280000.0, "dist_km": 0.0, "conf": "medium", "unit_name": "USGS Africa lithology", "unit_lith": "Ultramafic (USGS Africa surficial lithology, class 8)" }, "geometry": { "type": "Point", "coordinates": [ 30.116111, -24.823611 ] } },
{ "type": "Feature", "properties": { "mine": "Lion Smelter", "tsf": "Lion Smelter (Cell 2 and 3)", "owner_company": "Glencore", "country": "South Africa", "status": "Active", "storage_m3": 520000.0, "dist_km": 0.0, "conf": "medium", "unit_name": "USGS Africa lithology", "unit_lith": "Ultramafic (USGS Africa surficial lithology, class 8)" }, "geometry": { "type": "Point", "coordinates": [ 30.116944, -24.822222 ] } },
{ "type": "Feature", "properties": { "mine": "Rietvly Silica Mine", "tsf": "Rietvly (Silica TSF)", "owner_company": "Glencore", "country": "South Africa", "status": "Active", "storage_m3": 200000.0, "dist_km": 0.9, "conf": "medium", "unit_name": "USGS Africa lithology", "unit_lith": "Ultramafic (USGS Africa surficial lithology, class 8)" }, "geometry": { "type": "Point", "coordinates": [ 27.133056, -25.629722 ] } },
{ "type": "Feature", "properties": { "mine": "Rustenburg Smelter", "tsf": "Rustenburg Smelter (Slimes 1 2 3)", "owner_company": "Glencore", "country": "South Africa", "status": "Inactive", "storage_m3": 400000.0, "dist_km": 1.3, "conf": "medium", "unit_name": "USGS Africa lithology", "unit_lith": "Ultramafic (USGS Africa surficial lithology, class 8)" }, "geometry": { "type": "Point", "coordinates": [ 27.225, -25.615556 ] } },
{ "type": "Feature", "properties": { "mine": "Rustenburg Smelter", "tsf": "Rustenburg Smelter (Slimes 4)", "owner_company": "Glencore", "country": "South Africa", "status": "Active", "storage_m3": 160000.0, "dist_km": 1.4, "conf": "medium", "unit_name": "USGS Africa lithology", "unit_lith": "Ultramafic (USGS Africa surficial lithology, class 8)" }, "geometry": { "type": "Point", "coordinates": [ 27.226111, -25.614444 ] } },
{ "type": "Feature", "properties": { "mine": "Thorncliffe Chrome Mine", "tsf": "Thorncliffe TSF (North Tailings Disposal Dam)", "owner_company": "Glencore", "country": "South Africa", "status": "Active", "storage_m3": 410000.0, "dist_km": 0.0, "conf": "medium", "unit_name": "USGS Africa lithology", "unit_lith": "Ultramafic (USGS Africa surficial lithology, class 8)" }, "geometry": { "type": "Point", "coordinates": [ 30.124722, -24.960556 ] } },
{ "type": "Feature", "properties": { "mine": "Waterval Mine", "tsf": "Waterval TSF (East)", "owner_company": "Glencore", "country": "South Africa", "status": "Closed", "storage_m3": 45000.0, "dist_km": 0.0, "conf": "medium", "unit_name": "USGS Africa lithology", "unit_lith": "Ultramafic (USGS Africa surficial lithology, class 8)" }, "geometry": { "type": "Point", "coordinates": [ 27.27, -25.684167 ] } },
{ "type": "Feature", "properties": { "mine": "Waterval Mine", "tsf": "Waterval TSF (West)", "owner_company": "Glencore", "country": "South Africa", "status": "Closed", "storage_m3": 380000.0, "dist_km": 0.0, "conf": "medium", "unit_name": "USGS Africa lithology", "unit_lith": "Ultramafic (USGS Africa surficial lithology, class 8)" }, "geometry": { "type": "Point", "coordinates": [ 27.268889, -25.684444 ] } },
{ "type": "Feature", "properties": { "mine": "Wonderkop Smelter", "tsf": "Wonderkop Smelter (Slimes Dam 1)", "owner_company": "Glencore", "country": "South Africa", "status": "Inactive", "storage_m3": 60000.0, "dist_km": 2.6, "conf": "medium", "unit_name": "USGS Africa lithology", "unit_lith": "Ultramafic (USGS Africa surficial lithology, class 8)" }, "geometry": { "type": "Point", "coordinates": [ 27.405, -25.715833 ] } },
{ "type": "Feature", "properties": { "mine": "Wonderkop Smelter", "tsf": "Wonderkop Smelter (Slimes Dam 2)", "owner_company": "Glencore", "country": "South Africa", "status": "Inactive", "storage_m3": 100000.0, "dist_km": 2.8, "conf": "medium", "unit_name": "USGS Africa lithology", "unit_lith": "Ultramafic (USGS Africa surficial lithology, class 8)" }, "geometry": { "type": "Point", "coordinates": [ 27.403056, -25.716389 ] } },
{ "type": "Feature", "properties": { "mine": "Wonderkop Smelter", "tsf": "Wonderkop Smelter (Slimes Dam 3)", "owner_company": "Glencore", "country": "South Africa", "status": "Active", "storage_m3": 6000.0, "dist_km": 2.7, "conf": "medium", "unit_name": "USGS Africa lithology", "unit_lith": "Ultramafic (USGS Africa surficial lithology, class 8)" }, "geometry": { "type": "Point", "coordinates": [ 27.403333, -25.717778 ] } },
{ "type": "Feature", "properties": { "mine": "Kroondal Mine", "tsf": "Kroondal TSF (TSF)", "owner_company": "Glencore", "country": "South Africa", "status": "Active", "storage_m3": 400000.0, "dist_km": 3.8, "conf": "medium", "unit_name": "USGS Africa lithology", "unit_lith": "Ultramafic (USGS Africa surficial lithology, class 8)" }, "geometry": { "type": "Point", "coordinates": [ 27.356111, -25.716389 ] } },
{ "type": "Feature", "properties": { "mine": "Annesley", "tsf": "Quarry 1", "owner_company": "Imerys", "country": "South Africa", "status": "Closed", "storage_m3": 500000.0, "dist_km": 4.0, "conf": "medium", "unit_name": "USGS Africa lithology", "unit_lith": "Ultramafic (USGS Africa surficial lithology, class 8)" }, "geometry": { "type": "Point", "coordinates": [ 30.256309, -24.400297 ] } },
{ "type": "Feature", "properties": { "mine": "Annesley", "tsf": "Quarry 3", "owner_company": "Imerys", "country": "South Africa", "status": "Active", "storage_m3": 150000.0, "dist_km": 4.1, "conf": "medium", "unit_name": "USGS Africa lithology", "unit_lith": "Ultramafic (USGS Africa surficial lithology, class 8)" }, "geometry": { "type": "Point", "coordinates": [ 30.261319, -24.403267 ] } },
{ "type": "Feature", "properties": { "mine": "Marula", "tsf": "TD1", "owner_company": "IMPALA Platinum", "country": "South Africa", "status": "Active", "storage_m3": 12000000.0, "dist_km": 0.4, "conf": "medium", "unit_name": "USGS Africa lithology", "unit_lith": "Ultramafic (USGS Africa surficial lithology, class 8)" }, "geometry": { "type": "Point", "coordinates": [ 30.108347, -24.511094 ] } },
{ "type": "Feature", "properties": { "mine": "Marula", "tsf": "TD2", "owner_company": "IMPALA Platinum", "country": "South Africa", "status": "Construction", "storage_m3": null, "dist_km": 0.8, "conf": "medium", "unit_name": "USGS Africa lithology", "unit_lith": "Ultramafic (USGS Africa surficial lithology, class 8)" }, "geometry": { "type": "Point", "coordinates": [ 30.104231, -24.516964 ] } },
{ "type": "Feature", "properties": { "mine": "Two Rivers", "tsf": "Two Rivers Tailings facility", "owner_company": "IMPALA Platinum", "country": "South Africa", "status": "Active", "storage_m3": 3900000.0, "dist_km": 0.0, "conf": "medium", "unit_name": "USGS Africa lithology", "unit_lith": "Ultramafic (USGS Africa surficial lithology, class 8)" }, "geometry": { "type": "Point", "coordinates": [ 30.105894, -24.955322 ] } },
{ "type": "Feature", "properties": { "mine": "Kroondal Mine", "tsf": "K1", "owner_company": "Sibanye-Stillwater", "country": "South Africa", "status": "Active", "storage_m3": 5300000.0, "dist_km": 3.2, "conf": "medium", "unit_name": "USGS Africa lithology", "unit_lith": "Ultramafic (USGS Africa surficial lithology, class 8)" }, "geometry": { "type": "Point", "coordinates": [ 27.3296, -25.71306 ] } },
{ "type": "Feature", "properties": { "mine": "Kroondal Mine", "tsf": "K150", "owner_company": "Sibanye-Stillwater", "country": "South Africa", "status": "Active", "storage_m3": 10100000.0, "dist_km": 3.6, "conf": "medium", "unit_name": "USGS Africa lithology", "unit_lith": "Ultramafic (USGS Africa surficial lithology, class 8)" }, "geometry": { "type": "Point", "coordinates": [ 27.35163, -25.7164 ] } },
{ "type": "Feature", "properties": { "mine": "Kroondal Mine", "tsf": "K2", "owner_company": "Sibanye-Stillwater", "country": "South Africa", "status": "Active", "storage_m3": 16000000.0, "dist_km": 4.1, "conf": "medium", "unit_name": "USGS Africa lithology", "unit_lith": "Ultramafic (USGS Africa surficial lithology, class 8)" }, "geometry": { "type": "Point", "coordinates": [ 27.3604, -25.71688 ] } },
{ "type": "Feature", "properties": { "mine": "Kroondal Mine", "tsf": "Marikana", "owner_company": "Sibanye-Stillwater", "country": "South Africa", "status": "Active", "storage_m3": 11900000.0, "dist_km": 1.4, "conf": "medium", "unit_name": "USGS Africa lithology", "unit_lith": "Ultramafic (USGS Africa surficial lithology, class 8)" }, "geometry": { "type": "Point", "coordinates": [ 27.40939, -25.732519 ] } },
{ "type": "Feature", "properties": { "mine": "Rustenburg operations", "tsf": "Paardekraal PK4", "owner_company": "Sibanye-Stillwater", "country": "South Africa", "status": "Active", "storage_m3": 39500000.0, "dist_km": 5.0, "conf": "medium", "unit_name": "USGS Africa lithology", "unit_lith": "Ultramafic (USGS Africa surficial lithology, class 8)" }, "geometry": { "type": "Point", "coordinates": [ 27.3053, -25.6273 ] } },
{ "type": "Feature", "properties": { "mine": "San Ciprian", "tsf": "RSA 1", "owner_company": "Alcoa", "country": "Spain", "status": "Active", "storage_m3": 22680000.0, "dist_km": 0.5, "conf": "high", "unit_name": null, "unit_lith": "serpentinite and peridotite. basic and ultrabasic rocks" }, "geometry": { "type": "Point", "coordinates": [ -7.495062, 43.710602 ] } },
{ "type": "Feature", "properties": { "mine": "McLaughlin", "tsf": "McLaughlin TSF", "owner_company": "Barrick Gold Corporation", "country": "USA", "status": "Closed", "storage_m3": 27000000.0, "dist_km": 0.0, "conf": "high", "unit_name": "Ultramafic rocks, chiefly Mesozoic, unit 3 (Coast Ranges and Western Klamath Mountains)", "unit_lith": "Major:{serpentinite}, Minor:{peridotite}" }, "geometry": { "type": "Point", "coordinates": [ -122.438928, 38.866172 ] } },
{ "type": "Feature", "properties": { "mine": "Grey Eagle", "tsf": "Tailings Storage Facility (Tailings Dam)", "owner_company": "Glencore", "country": "USA", "status": "Closed", "storage_m3": 1000000.0, "dist_km": 1.4, "conf": "high", "unit_name": "Ultramafic rocks, chiefly Mesozoic, unit 2 (Western Sierra Nevada and Klamath Mountains)", "unit_lith": "Major:{peridotite,serpentinite}, Minor:{pyroxenite}" }, "geometry": { "type": "Point", "coordinates": [ -123.374444, 41.863611 ] } },
{ "type": "Feature", "properties": { "mine": "Greens Creek", "tsf": "Greens Creek", "owner_company": "Hecla Mining Company", "country": "USA", "status": "Active", "storage_m3": 3890000.0, "dist_km": 0.2, "conf": "high", "unit_name": "Dunite and serpentinite, undivided", "unit_lith": "Metamorphic" }, "geometry": { "type": "Point", "coordinates": [ -134.7463, 58.1174 ] } },
{ "type": "Feature", "properties": { "mine": "Lompoc", "tsf": "44 East Pond", "owner_company": "Imerys", "country": "USA", "status": "Active", "storage_m3": 238000.0, "dist_km": 4.1, "conf": "high", "unit_name": "Ultramafic rocks, chiefly Mesozoic, unit 3 (Coast Ranges and Western Klamath Mountains)", "unit_lith": "Major:{serpentinite}, Minor:{peridotite}" }, "geometry": { "type": "Point", "coordinates": [ -120.442348, 34.590919 ] } },
{ "type": "Feature", "properties": { "mine": "Lompoc", "tsf": "44 West Pond", "owner_company": "Imerys", "country": "USA", "status": "Active", "storage_m3": 370000.0, "dist_km": 3.7, "conf": "high", "unit_name": "Ultramafic rocks, chiefly Mesozoic, unit 3 (Coast Ranges and Western Klamath Mountains)", "unit_lith": "Major:{serpentinite}, Minor:{peridotite}" }, "geometry": { "type": "Point", "coordinates": [ -120.44669, 34.591139 ] } },
{ "type": "Feature", "properties": { "mine": "Lompoc", "tsf": "TJ Pond", "owner_company": "Imerys", "country": "USA", "status": "Active", "storage_m3": null, "dist_km": 4.0, "conf": "high", "unit_name": "Ultramafic rocks, chiefly Mesozoic, unit 3 (Coast Ranges and Western Klamath Mountains)", "unit_lith": "Major:{serpentinite}, Minor:{peridotite}" }, "geometry": { "type": "Point", "coordinates": [ -120.446121, 34.599939 ] } },
{ "type": "Feature", "properties": { "mine": "Empire Mine                ", "tsf": "Sand Dam -  Property owned by California State Parkes.", "owner_company": "Newmont Goldcorp", "country": "USA", "status": "Inactive ", "storage_m3": 10000000.0, "dist_km": 2.5, "conf": "high", "unit_name": "Ultramafic rocks, chiefly Mesozoic, unit 2 (Western Sierra Nevada and Klamath Mountains)", "unit_lith": "Major:{peridotite,serpentinite}, Minor:{pyroxenite}" }, "geometry": { "type": "Point", "coordinates": [ -121.0476, 39.2047 ] } },
{ "type": "Feature", "properties": { "mine": "Empire Mine                ", "tsf": "Stacy Lane Pond", "owner_company": "Newmont Goldcorp", "country": "USA", "status": "Inactive ", "storage_m3": 250000.0, "dist_km": 2.5, "conf": "high", "unit_name": "Ultramafic rocks, chiefly Mesozoic, unit 2 (Western Sierra Nevada and Klamath Mountains)", "unit_lith": "Major:{peridotite,serpentinite}, Minor:{pyroxenite}" }, "geometry": { "type": "Point", "coordinates": [ -121.0476, 39.2047 ] } },
{ "type": "Feature", "properties": { "mine": "Royal Mountain King Mine", "tsf": "Flotation Tailings Reservoir", "owner_company": "Yamana Gold", "country": "USA", "status": "Closed", "storage_m3": 5200000.0, "dist_km": 4.3, "conf": "high", "unit_name": "Ultramafic rocks, chiefly Mesozoic, unit 2 (Western Sierra Nevada and Klamath Mountains)", "unit_lith": "Major:{peridotite,serpentinite}, Minor:{pyroxenite}" }, "geometry": { "type": "Point", "coordinates": [ -120.684722, 38.008333 ] } },
{ "type": "Feature", "properties": { "mine": "Unki", "tsf": "Dam 1", "owner_company": "Anglo American Platinum", "country": "Zimbabwe", "status": "Active", "storage_m3": 7900000.0, "dist_km": 1.0, "conf": "medium", "unit_name": "USGS Africa lithology", "unit_lith": "Ultramafic (USGS Africa surficial lithology, class 8)" }, "geometry": { "type": "Point", "coordinates": [ 30.07222, -19.62417 ] } },
{ "type": "Feature", "properties": { "mine": "Unki", "tsf": "Unki Slag Stockpile", "owner_company": "Anglo American Platinum", "country": "Zimbabwe", "status": "Active", "storage_m3": 10000.0, "dist_km": 0.0, "conf": "medium", "unit_name": "USGS Africa lithology", "unit_lith": "Ultramafic (USGS Africa surficial lithology, class 8)" }, "geometry": { "type": "Point", "coordinates": [ 30.097567, -19.613694 ] } },
{ "type": "Feature", "properties": { "mine": "Mimosa", "tsf": "Mimosa Phase 3 Tailings facility", "owner_company": "IMPALA Platinum", "country": "Zimbabwe", "status": "Active", "storage_m3": 20000000.0, "dist_km": 0.0, "conf": "medium", "unit_name": "USGS Africa lithology", "unit_lith": "Ultramafic (USGS Africa surficial lithology, class 8)" }, "geometry": { "type": "Point", "coordinates": [ 29.831806, -20.3185 ] } }
]
}
